<?xml version="1.0" encoding="UTF-8"?>
<gpx version="1.1" creator="Randox" xmlns="http://www.topografix.com/GPX/1/1">
<metadata><name>Cirque de Gavarnie</name><copyright author="OpenStreetMap contributors"><license>https://www.openstreetmap.org/copyright</license></copyright></metadata>
<trk><name>Cirque de Gavarnie</name><trkseg>
<trkpt lat="42.733021" lon="-0.009698"><ele>1377.3</ele></trkpt>
<trkpt lat="42.732960" lon="-0.009687"></trkpt>
<trkpt lat="42.732775" lon="-0.009652"><ele>1373.8</ele></trkpt>
<trkpt lat="42.732599" lon="-0.009606"></trkpt>
<trkpt lat="42.732562" lon="-0.009596"><ele>1372.9</ele></trkpt>
<trkpt lat="42.732492" lon="-0.009568"></trkpt>
<trkpt lat="42.732026" lon="-0.009372"><ele>1372.8</ele></trkpt>
<trkpt lat="42.731741" lon="-0.009240"></trkpt>
<trkpt lat="42.731626" lon="-0.009165"><ele>1373.7</ele></trkpt>
<trkpt lat="42.731467" lon="-0.009077"></trkpt>
<trkpt lat="42.731371" lon="-0.009023"><ele>1374.1</ele></trkpt>
<trkpt lat="42.730912" lon="-0.008880"></trkpt>
<trkpt lat="42.730854" lon="-0.008886"><ele>1375.3</ele></trkpt>
<trkpt lat="42.730799" lon="-0.008827"></trkpt>
<trkpt lat="42.730675" lon="-0.008792"><ele>1375.8</ele></trkpt>
<trkpt lat="42.730799" lon="-0.008827"></trkpt>
<trkpt lat="42.730378" lon="-0.008705"><ele>1377.2</ele></trkpt>
<trkpt lat="42.729608" lon="-0.008191"></trkpt>
<trkpt lat="42.729219" lon="-0.008171"><ele>1381.4</ele></trkpt>
<trkpt lat="42.729134" lon="-0.008164"></trkpt>
<trkpt lat="42.728680" lon="-0.008078"><ele>1382.5</ele></trkpt>
<trkpt lat="42.728234" lon="-0.008030"></trkpt>
<trkpt lat="42.728058" lon="-0.007936"><ele>1378.9</ele></trkpt>
<trkpt lat="42.727637" lon="-0.007894"></trkpt>
<trkpt lat="42.727642" lon="-0.007815"><ele>1378</ele></trkpt>
<trkpt lat="42.727645" lon="-0.007695"></trkpt>
<trkpt lat="42.727213" lon="-0.007511"><ele>1380</ele></trkpt>
<trkpt lat="42.726968" lon="-0.007451"></trkpt>
<trkpt lat="42.726806" lon="-0.007418"><ele>1381.8</ele></trkpt>
<trkpt lat="42.726659" lon="-0.007402"></trkpt>
<trkpt lat="42.726413" lon="-0.007385"><ele>1381.4</ele></trkpt>
<trkpt lat="42.726152" lon="-0.007420"></trkpt>
<trkpt lat="42.725899" lon="-0.007479"><ele>1382.5</ele></trkpt>
<trkpt lat="42.725663" lon="-0.007578"></trkpt>
<trkpt lat="42.725043" lon="-0.007958"><ele>1385.1</ele></trkpt>
<trkpt lat="42.724637" lon="-0.008030"></trkpt>
<trkpt lat="42.724447" lon="-0.008010"><ele>1387.3</ele></trkpt>
<trkpt lat="42.724150" lon="-0.007912"></trkpt>
<trkpt lat="42.723869" lon="-0.007768"><ele>1388.5</ele></trkpt>
<trkpt lat="42.723374" lon="-0.007467"></trkpt>
<trkpt lat="42.723315" lon="-0.007431"><ele>1389.3</ele></trkpt>
<trkpt lat="42.723118" lon="-0.007321"></trkpt>
<trkpt lat="42.723151" lon="-0.007167"><ele>1389.9</ele></trkpt>
<trkpt lat="42.723228" lon="-0.006979"></trkpt>
<trkpt lat="42.723245" lon="-0.006851"><ele>1393.8</ele></trkpt>
<trkpt lat="42.723217" lon="-0.006671"></trkpt>
<trkpt lat="42.723244" lon="-0.006553"><ele>1398.2</ele></trkpt>
<trkpt lat="42.723298" lon="-0.006455"></trkpt>
<trkpt lat="42.723343" lon="-0.006383"><ele>1400.1</ele></trkpt>
<trkpt lat="42.723379" lon="-0.006334"></trkpt>
<trkpt lat="42.723406" lon="-0.006294"><ele>1401.3</ele></trkpt>
<trkpt lat="42.723474" lon="-0.006192"></trkpt>
<trkpt lat="42.723474" lon="-0.005961"><ele>1406.8</ele></trkpt>
<trkpt lat="42.723528" lon="-0.005792"></trkpt>
<trkpt lat="42.723601" lon="-0.005680"><ele>1411.8</ele></trkpt>
<trkpt lat="42.723697" lon="-0.005445"></trkpt>
<trkpt lat="42.723828" lon="-0.005265"><ele>1420.2</ele></trkpt>
<trkpt lat="42.723887" lon="-0.005199"></trkpt>
<trkpt lat="42.724088" lon="-0.005050"><ele>1427</ele></trkpt>
<trkpt lat="42.724154" lon="-0.004978"></trkpt>
<trkpt lat="42.724189" lon="-0.004852"><ele>1431.8</ele></trkpt>
<trkpt lat="42.724316" lon="-0.004707"></trkpt>
<trkpt lat="42.724384" lon="-0.004628"><ele>1441.1</ele></trkpt>
<trkpt lat="42.724390" lon="-0.004568"></trkpt>
<trkpt lat="42.724245" lon="-0.004554"><ele>1445.6</ele></trkpt>
<trkpt lat="42.724108" lon="-0.004539"></trkpt>
<trkpt lat="42.724041" lon="-0.004501"><ele>1453</ele></trkpt>
<trkpt lat="42.724252" lon="-0.004304"></trkpt>
<trkpt lat="42.724155" lon="-0.004265"><ele>1461.2</ele></trkpt>
<trkpt lat="42.724072" lon="-0.004223"></trkpt>
<trkpt lat="42.724008" lon="-0.004205"><ele>1467.5</ele></trkpt>
<trkpt lat="42.723959" lon="-0.004149"></trkpt>
<trkpt lat="42.723990" lon="-0.004099"><ele>1471.5</ele></trkpt>
<trkpt lat="42.724117" lon="-0.004080"></trkpt>
<trkpt lat="42.724191" lon="-0.004002"><ele>1472.6</ele></trkpt>
<trkpt lat="42.724254" lon="-0.003954"></trkpt>
<trkpt lat="42.724297" lon="-0.003890"><ele>1477.2</ele></trkpt>
<trkpt lat="42.724271" lon="-0.003848"></trkpt>
<trkpt lat="42.724094" lon="-0.003819"><ele>1485.1</ele></trkpt>
<trkpt lat="42.724007" lon="-0.003766"></trkpt>
<trkpt lat="42.724163" lon="-0.003672"><ele>1491.2</ele></trkpt>
<trkpt lat="42.724041" lon="-0.003635"></trkpt>
<trkpt lat="42.723951" lon="-0.003545"><ele>1501.9</ele></trkpt>
<trkpt lat="42.724156" lon="-0.003524"></trkpt>
<trkpt lat="42.723953" lon="-0.003393"><ele>1509.2</ele></trkpt>
<trkpt lat="42.724102" lon="-0.003315"></trkpt>
<trkpt lat="42.724212" lon="-0.003280"><ele>1514.3</ele></trkpt>
<trkpt lat="42.724297" lon="-0.003175"></trkpt>
<trkpt lat="42.724358" lon="-0.003062"><ele>1524.3</ele></trkpt>
<trkpt lat="42.724254" lon="-0.003043"></trkpt>
<trkpt lat="42.724293" lon="-0.002993"><ele>1529.1</ele></trkpt>
<trkpt lat="42.724379" lon="-0.002933"></trkpt>
<trkpt lat="42.724185" lon="-0.002915"><ele>1535.3</ele></trkpt>
<trkpt lat="42.724047" lon="-0.002853"></trkpt>
<trkpt lat="42.723957" lon="-0.002850"><ele>1540.6</ele></trkpt>
<trkpt lat="42.723999" lon="-0.002736"></trkpt>
<trkpt lat="42.724173" lon="-0.002665"><ele>1546.5</ele></trkpt>
<trkpt lat="42.724170" lon="-0.002629"></trkpt>
<trkpt lat="42.724080" lon="-0.002591"><ele>1553</ele></trkpt>
<trkpt lat="42.724005" lon="-0.002586"></trkpt>
<trkpt lat="42.723921" lon="-0.002558"><ele>1559.3</ele></trkpt>
<trkpt lat="42.723959" lon="-0.002494"></trkpt>
<trkpt lat="42.724042" lon="-0.002460"><ele>1561.7</ele></trkpt>
<trkpt lat="42.724117" lon="-0.002414"></trkpt>
<trkpt lat="42.724150" lon="-0.002381"><ele>1564.8</ele></trkpt>
<trkpt lat="42.724108" lon="-0.002361"></trkpt>
<trkpt lat="42.723980" lon="-0.002369"><ele>1568.7</ele></trkpt>
<trkpt lat="42.723939" lon="-0.002337"></trkpt>
<trkpt lat="42.723941" lon="-0.002266"><ele>1576.5</ele></trkpt>
<trkpt lat="42.723999" lon="-0.002250"></trkpt>
<trkpt lat="42.724042" lon="-0.002163"><ele>1577.6</ele></trkpt>
<trkpt lat="42.723941" lon="-0.002149"></trkpt>
<trkpt lat="42.723871" lon="-0.002057"><ele>1588.2</ele></trkpt>
<trkpt lat="42.723782" lon="-0.002115"></trkpt>
<trkpt lat="42.723679" lon="-0.002070"><ele>1590</ele></trkpt>
<trkpt lat="42.723591" lon="-0.001977"></trkpt>
<trkpt lat="42.723545" lon="-0.001986"><ele>1596</ele></trkpt>
<trkpt lat="42.723491" lon="-0.001889"></trkpt>
<trkpt lat="42.723349" lon="-0.001943"><ele>1602.6</ele></trkpt>
<trkpt lat="42.723232" lon="-0.001873"></trkpt>
<trkpt lat="42.723134" lon="-0.001894"><ele>1606.3</ele></trkpt>
<trkpt lat="42.723055" lon="-0.001866"></trkpt>
<trkpt lat="42.723000" lon="-0.001837"><ele>1609.2</ele></trkpt>
<trkpt lat="42.722982" lon="-0.001784"></trkpt>
<trkpt lat="42.723069" lon="-0.001730"><ele>1613.4</ele></trkpt>
<trkpt lat="42.723127" lon="-0.001691"></trkpt>
<trkpt lat="42.723141" lon="-0.001673"><ele>1619.9</ele></trkpt>
<trkpt lat="42.723275" lon="-0.001535"></trkpt>
<trkpt lat="42.723310" lon="-0.001423"><ele>1631.6</ele></trkpt>
<trkpt lat="42.723437" lon="-0.001360"></trkpt>
<trkpt lat="42.723570" lon="-0.001215"><ele>1635.8</ele></trkpt>
<trkpt lat="42.723575" lon="-0.001103"></trkpt>
<trkpt lat="42.723639" lon="-0.001006"><ele>1644</ele></trkpt>
<trkpt lat="42.723335" lon="-0.001101"></trkpt>
<trkpt lat="42.723249" lon="-0.001066"><ele>1653.1</ele></trkpt>
<trkpt lat="42.723138" lon="-0.001062"></trkpt>
<trkpt lat="42.723101" lon="-0.001100"><ele>1651.1</ele></trkpt>
<trkpt lat="42.722960" lon="-0.001176"></trkpt>
<trkpt lat="42.722884" lon="-0.001062"><ele>1647.8</ele></trkpt>
<trkpt lat="42.722560" lon="-0.000610"></trkpt>
<trkpt lat="42.722514" lon="-0.000569"><ele>1658</ele></trkpt>
<trkpt lat="42.722366" lon="-0.000391"></trkpt>
<trkpt lat="42.722252" lon="-0.000346"><ele>1663</ele></trkpt>
<trkpt lat="42.721964" lon="-0.000115"></trkpt>
<trkpt lat="42.721847" lon="0.000297"><ele>1678.6</ele></trkpt>
<trkpt lat="42.721398" lon="0.000915"></trkpt>
<trkpt lat="42.721348" lon="0.000932"><ele>1694.4</ele></trkpt>
<trkpt lat="42.721302" lon="0.000955"></trkpt>
<trkpt lat="42.721271" lon="0.001069"><ele>1697.6</ele></trkpt>
<trkpt lat="42.721330" lon="0.001180"></trkpt>
<trkpt lat="42.721388" lon="0.001216"><ele>1702.5</ele></trkpt>
<trkpt lat="42.721530" lon="0.001244"></trkpt>
<trkpt lat="42.721461" lon="0.001416"><ele>1712.1</ele></trkpt>
<trkpt lat="42.721193" lon="0.001725"></trkpt>
<trkpt lat="42.721090" lon="0.001812"><ele>1722.1</ele></trkpt>
<trkpt lat="42.721041" lon="0.001919"></trkpt>
<trkpt lat="42.720978" lon="0.001965"><ele>1725.2</ele></trkpt>
<trkpt lat="42.720879" lon="0.001986"></trkpt>
<trkpt lat="42.720846" lon="0.002039"><ele>1727.7</ele></trkpt>
<trkpt lat="42.720764" lon="0.001949"></trkpt>
<trkpt lat="42.720713" lon="0.001981"><ele>1730.3</ele></trkpt>
<trkpt lat="42.720657" lon="0.001941"></trkpt>
<trkpt lat="42.720610" lon="0.001931"><ele>1730.9</ele></trkpt>
<trkpt lat="42.720552" lon="0.001929"></trkpt>
<trkpt lat="42.720447" lon="0.001941"><ele>1734.7</ele></trkpt>
<trkpt lat="42.720333" lon="0.001952"></trkpt>
<trkpt lat="42.720291" lon="0.001925"><ele>1737.1</ele></trkpt>
<trkpt lat="42.720211" lon="0.001858"></trkpt>
<trkpt lat="42.719954" lon="0.001506"><ele>1730.7</ele></trkpt>
<trkpt lat="42.719991" lon="0.001511"></trkpt>
<trkpt lat="42.720032" lon="0.001547"><ele>1730.3</ele></trkpt>
<trkpt lat="42.720059" lon="0.001622"></trkpt>
<trkpt lat="42.720211" lon="0.001858"><ele>1737.1</ele></trkpt>
<trkpt lat="42.719893" lon="0.001509"></trkpt>
<trkpt lat="42.719808" lon="0.001512"><ele>1739.3</ele></trkpt>
<trkpt lat="42.719773" lon="0.001444"></trkpt>
<trkpt lat="42.719722" lon="0.001399"><ele>1744.9</ele></trkpt>
<trkpt lat="42.719697" lon="0.001368"></trkpt>
<trkpt lat="42.719695" lon="0.001329"><ele>1746</ele></trkpt>
<trkpt lat="42.719697" lon="0.001251"></trkpt>
<trkpt lat="42.719775" lon="0.001033"><ele>1745.4</ele></trkpt>
<trkpt lat="42.719834" lon="0.000834"></trkpt>
<trkpt lat="42.719859" lon="0.000681"><ele>1743.6</ele></trkpt>
<trkpt lat="42.719848" lon="0.000561"></trkpt>
<trkpt lat="42.719800" lon="0.000409"><ele>1749.4</ele></trkpt>
<trkpt lat="42.719781" lon="0.000240"></trkpt>
<trkpt lat="42.719772" lon="0.000065"><ele>1758.3</ele></trkpt>
<trkpt lat="42.719705" lon="-0.000095"></trkpt>
<trkpt lat="42.719657" lon="-0.000238"><ele>1761</ele></trkpt>
<trkpt lat="42.719626" lon="-0.000369"></trkpt>
<trkpt lat="42.719574" lon="-0.000481"><ele>1756.5</ele></trkpt>
<trkpt lat="42.719514" lon="-0.000611"></trkpt>
<trkpt lat="42.719672" lon="-0.000551"><ele>1748.8</ele></trkpt>
<trkpt lat="42.719631" lon="-0.000728"></trkpt>
<trkpt lat="42.719597" lon="-0.000785"><ele>1739.5</ele></trkpt>
<trkpt lat="42.719360" lon="-0.000907"></trkpt>
<trkpt lat="42.719181" lon="-0.000947"><ele>1734.8</ele></trkpt>
<trkpt lat="42.718991" lon="-0.001012"></trkpt>
<trkpt lat="42.718809" lon="-0.001117"><ele>1732.4</ele></trkpt>
<trkpt lat="42.718741" lon="-0.001137"></trkpt>
<trkpt lat="42.718661" lon="-0.001251"><ele>1729.5</ele></trkpt>
<trkpt lat="42.718500" lon="-0.001303"></trkpt>
<trkpt lat="42.718277" lon="-0.001419"><ele>1721</ele></trkpt>
<trkpt lat="42.718138" lon="-0.001444"></trkpt>
<trkpt lat="42.718060" lon="-0.001409"><ele>1721.5</ele></trkpt>
<trkpt lat="42.718034" lon="-0.001340"></trkpt>
<trkpt lat="42.717925" lon="-0.001301"><ele>1723.8</ele></trkpt>
<trkpt lat="42.717857" lon="-0.001367"></trkpt>
<trkpt lat="42.717771" lon="-0.001411"><ele>1716.1</ele></trkpt>
<trkpt lat="42.717491" lon="-0.001394"></trkpt>
<trkpt lat="42.717405" lon="-0.001484"><ele>1711.6</ele></trkpt>
<trkpt lat="42.717303" lon="-0.001559"></trkpt>
<trkpt lat="42.717200" lon="-0.001580"><ele>1706.3</ele></trkpt>
<trkpt lat="42.717110" lon="-0.001577"></trkpt>
<trkpt lat="42.716995" lon="-0.001420"><ele>1707.7</ele></trkpt>
<trkpt lat="42.716862" lon="-0.001389"></trkpt>
<trkpt lat="42.716721" lon="-0.001340"><ele>1706.2</ele></trkpt>
<trkpt lat="42.716578" lon="-0.001217"></trkpt>
<trkpt lat="42.716477" lon="-0.001447"><ele>1704.8</ele></trkpt>
<trkpt lat="42.716397" lon="-0.001546"></trkpt>
<trkpt lat="42.716292" lon="-0.001597"><ele>1704.4</ele></trkpt>
<trkpt lat="42.716260" lon="-0.001600"></trkpt>
<trkpt lat="42.716159" lon="-0.001690"><ele>1703</ele></trkpt>
<trkpt lat="42.716063" lon="-0.001734"></trkpt>
<trkpt lat="42.715979" lon="-0.001730"><ele>1702.1</ele></trkpt>
<trkpt lat="42.715888" lon="-0.001793"></trkpt>
<trkpt lat="42.715799" lon="-0.001824"><ele>1701.1</ele></trkpt>
<trkpt lat="42.715686" lon="-0.001815"></trkpt>
<trkpt lat="42.715407" lon="-0.001744"><ele>1705.5</ele></trkpt>
<trkpt lat="42.715047" lon="-0.001843"></trkpt>
<trkpt lat="42.714881" lon="-0.001989"><ele>1702.9</ele></trkpt>
<trkpt lat="42.714783" lon="-0.002072"></trkpt>
<trkpt lat="42.714657" lon="-0.002133"><ele>1695.7</ele></trkpt>
<trkpt lat="42.714599" lon="-0.002100"></trkpt>
<trkpt lat="42.714553" lon="-0.002036"><ele>1697.9</ele></trkpt>
<trkpt lat="42.714459" lon="-0.001924"></trkpt>
<trkpt lat="42.714375" lon="-0.001884"><ele>1706.5</ele></trkpt>
<trkpt lat="42.714265" lon="-0.001928"></trkpt>
<trkpt lat="42.714176" lon="-0.002051"><ele>1701.9</ele></trkpt>
<trkpt lat="42.714102" lon="-0.002106"></trkpt>
<trkpt lat="42.713961" lon="-0.002135"><ele>1704.5</ele></trkpt>
<trkpt lat="42.713909" lon="-0.002155"></trkpt>
<trkpt lat="42.713891" lon="-0.002226"><ele>1704.8</ele></trkpt>
<trkpt lat="42.713863" lon="-0.002257"></trkpt>
<trkpt lat="42.713670" lon="-0.002326"><ele>1702.5</ele></trkpt>
<trkpt lat="42.713567" lon="-0.002312"></trkpt>
<trkpt lat="42.713407" lon="-0.002145"><ele>1707.2</ele></trkpt>
<trkpt lat="42.713169" lon="-0.002068"></trkpt>
<trkpt lat="42.713017" lon="-0.001994"><ele>1701.6</ele></trkpt>
<trkpt lat="42.712900" lon="-0.002001"></trkpt>
<trkpt lat="42.712776" lon="-0.001889"><ele>1702.7</ele></trkpt>
<trkpt lat="42.712593" lon="-0.001874"></trkpt>
<trkpt lat="42.712503" lon="-0.001817"><ele>1713.6</ele></trkpt>
<trkpt lat="42.712430" lon="-0.001797"></trkpt>
<trkpt lat="42.712382" lon="-0.001696"><ele>1726.9</ele></trkpt>
<trkpt lat="42.712315" lon="-0.001709"></trkpt>
<trkpt lat="42.712160" lon="-0.001865"><ele>1721.2</ele></trkpt>
<trkpt lat="42.712045" lon="-0.002072"></trkpt>
<trkpt lat="42.711983" lon="-0.002368"><ele>1704.6</ele></trkpt>
<trkpt lat="42.711950" lon="-0.002460"></trkpt>
<trkpt lat="42.711841" lon="-0.002615"><ele>1706.3</ele></trkpt>
<trkpt lat="42.711504" lon="-0.002714"></trkpt>
<trkpt lat="42.711360" lon="-0.002801"><ele>1712.9</ele></trkpt>
<trkpt lat="42.711212" lon="-0.002835"></trkpt>
<trkpt lat="42.711004" lon="-0.002949"><ele>1709</ele></trkpt>
<trkpt lat="42.710806" lon="-0.002907"></trkpt>
<trkpt lat="42.710776" lon="-0.002975"><ele>1706.5</ele></trkpt>
<trkpt lat="42.710681" lon="-0.003036"></trkpt>
<trkpt lat="42.710626" lon="-0.003027"><ele>1701.7</ele></trkpt>
<trkpt lat="42.710522" lon="-0.002889"></trkpt>
<trkpt lat="42.710488" lon="-0.002867"><ele>1713.2</ele></trkpt>
<trkpt lat="42.710462" lon="-0.002832"></trkpt>
<trkpt lat="42.710307" lon="-0.002821"><ele>1716.3</ele></trkpt>
<trkpt lat="42.710111" lon="-0.003048"></trkpt>
<trkpt lat="42.710058" lon="-0.003079"><ele>1702.8</ele></trkpt>
<trkpt lat="42.710010" lon="-0.003087"></trkpt>
<trkpt lat="42.709875" lon="-0.003249"><ele>1698.3</ele></trkpt>
<trkpt lat="42.709842" lon="-0.003351"></trkpt>
<trkpt lat="42.709787" lon="-0.003446"><ele>1689.9</ele></trkpt>
<trkpt lat="42.709730" lon="-0.003483"></trkpt>
<trkpt lat="42.709661" lon="-0.003500"><ele>1694.7</ele></trkpt>
<trkpt lat="42.709567" lon="-0.003578"></trkpt>
<trkpt lat="42.709475" lon="-0.003575"><ele>1703.2</ele></trkpt>
<trkpt lat="42.709415" lon="-0.003625"></trkpt>
<trkpt lat="42.709352" lon="-0.003759"><ele>1694.1</ele></trkpt>
<trkpt lat="42.709252" lon="-0.003828"></trkpt>
<trkpt lat="42.709236" lon="-0.003849"><ele>1695.4</ele></trkpt>
<trkpt lat="42.709227" lon="-0.003904"></trkpt>
<trkpt lat="42.709189" lon="-0.003941"><ele>1690.7</ele></trkpt>
<trkpt lat="42.709093" lon="-0.003995"></trkpt>
<trkpt lat="42.709025" lon="-0.004062"><ele>1691.4</ele></trkpt>
<trkpt lat="42.708975" lon="-0.004170"></trkpt>
<trkpt lat="42.708866" lon="-0.004278"><ele>1683.9</ele></trkpt>
<trkpt lat="42.708788" lon="-0.004399"></trkpt>
<trkpt lat="42.708626" lon="-0.004540"><ele>1674.5</ele></trkpt>
<trkpt lat="42.708584" lon="-0.004655"></trkpt>
<trkpt lat="42.708519" lon="-0.004692"><ele>1670</ele></trkpt>
<trkpt lat="42.708498" lon="-0.004721"></trkpt>
<trkpt lat="42.708418" lon="-0.004762"><ele>1672.9</ele></trkpt>
<trkpt lat="42.708372" lon="-0.004880"></trkpt>
<trkpt lat="42.708256" lon="-0.005043"><ele>1664.5</ele></trkpt>
<trkpt lat="42.707977" lon="-0.005260"></trkpt>
<trkpt lat="42.707890" lon="-0.005301"><ele>1673</ele></trkpt>
<trkpt lat="42.707840" lon="-0.005327"></trkpt>
<trkpt lat="42.707809" lon="-0.005464"><ele>1663.7</ele></trkpt>
<trkpt lat="42.707770" lon="-0.005529"></trkpt>
<trkpt lat="42.707686" lon="-0.005834"><ele>1654.7</ele></trkpt>
<trkpt lat="42.707700" lon="-0.005941"></trkpt>
<trkpt lat="42.707533" lon="-0.006172"><ele>1643.8</ele></trkpt>
<trkpt lat="42.707222" lon="-0.006492"></trkpt>
<trkpt lat="42.707029" lon="-0.006633"><ele>1631.8</ele></trkpt>
<trkpt lat="42.706790" lon="-0.006896"></trkpt>
<trkpt lat="42.706468" lon="-0.007017"><ele>1616.9</ele></trkpt>
<trkpt lat="42.706325" lon="-0.007148"></trkpt>
<trkpt lat="42.706226" lon="-0.007228"><ele>1610.3</ele></trkpt>
<trkpt lat="42.706145" lon="-0.007261"></trkpt>
<trkpt lat="42.706060" lon="-0.007228"><ele>1611</ele></trkpt>
<trkpt lat="42.705735" lon="-0.006998"></trkpt>
<trkpt lat="42.705647" lon="-0.006944"><ele>1616.8</ele></trkpt>
<trkpt lat="42.705604" lon="-0.006947"></trkpt>
<trkpt lat="42.705570" lon="-0.007002"><ele>1615.1</ele></trkpt>
<trkpt lat="42.705530" lon="-0.007068"></trkpt>
<trkpt lat="42.705573" lon="-0.007192"><ele>1611.4</ele></trkpt>
<trkpt lat="42.705607" lon="-0.007271"></trkpt>
<trkpt lat="42.705616" lon="-0.007324"><ele>1607.8</ele></trkpt>
<trkpt lat="42.705662" lon="-0.007388"></trkpt>
<trkpt lat="42.705669" lon="-0.007440"><ele>1602.7</ele></trkpt>
<trkpt lat="42.705681" lon="-0.007486"></trkpt>
<trkpt lat="42.705676" lon="-0.007578"><ele>1601</ele></trkpt>
<trkpt lat="42.705698" lon="-0.007696"></trkpt>
<trkpt lat="42.705585" lon="-0.007882"><ele>1597.4</ele></trkpt>
<trkpt lat="42.705505" lon="-0.007953"></trkpt>
<trkpt lat="42.705388" lon="-0.007919"><ele>1593.2</ele></trkpt>
<trkpt lat="42.705271" lon="-0.007934"></trkpt>
<trkpt lat="42.705234" lon="-0.007882"><ele>1590.9</ele></trkpt>
<trkpt lat="42.705070" lon="-0.007883"></trkpt>
<trkpt lat="42.705073" lon="-0.007914"><ele>1585.9</ele></trkpt>
<trkpt lat="42.705142" lon="-0.007957"></trkpt>
<trkpt lat="42.705208" lon="-0.008034"><ele>1583.5</ele></trkpt>
<trkpt lat="42.705192" lon="-0.008063"></trkpt>
<trkpt lat="42.705039" lon="-0.008105"><ele>1577.8</ele></trkpt>
<trkpt lat="42.705023" lon="-0.008141"></trkpt>
<trkpt lat="42.704954" lon="-0.008142"><ele>1574.4</ele></trkpt>
<trkpt lat="42.704839" lon="-0.008100"></trkpt>
<trkpt lat="42.704709" lon="-0.008048"><ele>1572.4</ele></trkpt>
<trkpt lat="42.704552" lon="-0.007996"></trkpt>
<trkpt lat="42.704459" lon="-0.007931"><ele>1574.2</ele></trkpt>
<trkpt lat="42.704295" lon="-0.007839"></trkpt>
<trkpt lat="42.704160" lon="-0.007838"><ele>1571.6</ele></trkpt>
<trkpt lat="42.703991" lon="-0.007972"></trkpt>
<trkpt lat="42.704117" lon="-0.008063"><ele>1564.8</ele></trkpt>
<trkpt lat="42.704236" lon="-0.008242"></trkpt>
<trkpt lat="42.704306" lon="-0.008415"><ele>1563.4</ele></trkpt>
<trkpt lat="42.704385" lon="-0.008511"></trkpt>
<trkpt lat="42.704645" lon="-0.008686"><ele>1561.6</ele></trkpt>
<trkpt lat="42.704727" lon="-0.008702"></trkpt>
<trkpt lat="42.704876" lon="-0.008678"><ele>1558.8</ele></trkpt>
<trkpt lat="42.705050" lon="-0.008567"></trkpt>
<trkpt lat="42.705172" lon="-0.008558"><ele>1557.4</ele></trkpt>
<trkpt lat="42.705302" lon="-0.008633"></trkpt>
<trkpt lat="42.705393" lon="-0.008774"><ele>1552</ele></trkpt>
<trkpt lat="42.705461" lon="-0.008939"></trkpt>
<trkpt lat="42.705495" lon="-0.009125"><ele>1551.2</ele></trkpt>
<trkpt lat="42.705497" lon="-0.009808"></trkpt>
<trkpt lat="42.705519" lon="-0.009837"><ele>1543.8</ele></trkpt>
<trkpt lat="42.705563" lon="-0.009856"></trkpt>
<trkpt lat="42.705819" lon="-0.009907"><ele>1542.5</ele></trkpt>
<trkpt lat="42.706055" lon="-0.009944"></trkpt>
<trkpt lat="42.706318" lon="-0.009879"><ele>1533</ele></trkpt>
<trkpt lat="42.706483" lon="-0.009875"></trkpt>
<trkpt lat="42.706574" lon="-0.009875"><ele>1528.8</ele></trkpt>
<trkpt lat="42.706617" lon="-0.009895"></trkpt>
<trkpt lat="42.706624" lon="-0.009964"><ele>1527.3</ele></trkpt>
<trkpt lat="42.706562" lon="-0.010172"></trkpt>
<trkpt lat="42.706537" lon="-0.010306"><ele>1525.3</ele></trkpt>
<trkpt lat="42.706496" lon="-0.010685"></trkpt>
<trkpt lat="42.706504" lon="-0.010766"><ele>1518.2</ele></trkpt>
<trkpt lat="42.706525" lon="-0.010815"></trkpt>
<trkpt lat="42.706557" lon="-0.010851"><ele>1515.8</ele></trkpt>
<trkpt lat="42.706699" lon="-0.010847"></trkpt>
<trkpt lat="42.706828" lon="-0.010864"><ele>1509.2</ele></trkpt>
<trkpt lat="42.706926" lon="-0.010807"></trkpt>
<trkpt lat="42.706981" lon="-0.010805"><ele>1507.9</ele></trkpt>
<trkpt lat="42.707044" lon="-0.010825"></trkpt>
<trkpt lat="42.707116" lon="-0.010900"><ele>1503.2</ele></trkpt>
<trkpt lat="42.707162" lon="-0.010902"></trkpt>
<trkpt lat="42.707206" lon="-0.010886"><ele>1500</ele></trkpt>
<trkpt lat="42.707261" lon="-0.010795"></trkpt>
<trkpt lat="42.707400" lon="-0.010707"><ele>1499.1</ele></trkpt>
<trkpt lat="42.707613" lon="-0.010593"></trkpt>
<trkpt lat="42.707671" lon="-0.010537"><ele>1495.4</ele></trkpt>
<trkpt lat="42.707798" lon="-0.010287"></trkpt>
<trkpt lat="42.708007" lon="-0.009876"><ele>1487.5</ele></trkpt>
<trkpt lat="42.708198" lon="-0.009610"></trkpt>
<trkpt lat="42.708230" lon="-0.009473"><ele>1478.5</ele></trkpt>
<trkpt lat="42.708376" lon="-0.009139"></trkpt>
<trkpt lat="42.708542" lon="-0.008618"><ele>1457.3</ele></trkpt>
<trkpt lat="42.708622" lon="-0.008461"></trkpt>
<trkpt lat="42.708731" lon="-0.008365"><ele>1463.4</ele></trkpt>
<trkpt lat="42.708816" lon="-0.008352"></trkpt>
<trkpt lat="42.709036" lon="-0.008447"><ele>1456.1</ele></trkpt>
<trkpt lat="42.709247" lon="-0.008398"></trkpt>
<trkpt lat="42.709467" lon="-0.008436"><ele>1457.2</ele></trkpt>
<trkpt lat="42.709687" lon="-0.008318"></trkpt>
<trkpt lat="42.710000" lon="-0.008077"><ele>1446.5</ele></trkpt>
<trkpt lat="42.710116" lon="-0.008053"></trkpt>
<trkpt lat="42.710651" lon="-0.008216"><ele>1444.8</ele></trkpt>
<trkpt lat="42.710827" lon="-0.008204"></trkpt>
<trkpt lat="42.711459" lon="-0.008204"><ele>1435</ele></trkpt>
<trkpt lat="42.711845" lon="-0.008065"></trkpt>
<trkpt lat="42.712501" lon="-0.007829"><ele>1431.3</ele></trkpt>
<trkpt lat="42.713050" lon="-0.007815"></trkpt>
<trkpt lat="42.713650" lon="-0.007846"><ele>1429.5</ele></trkpt>
<trkpt lat="42.713873" lon="-0.007829"></trkpt>
<trkpt lat="42.714092" lon="-0.007776"><ele>1430.2</ele></trkpt>
<trkpt lat="42.714239" lon="-0.007803"></trkpt>
<trkpt lat="42.714413" lon="-0.007795"><ele>1428.8</ele></trkpt>
<trkpt lat="42.714604" lon="-0.007711"></trkpt>
<trkpt lat="42.714725" lon="-0.007497"><ele>1428</ele></trkpt>
<trkpt lat="42.714725" lon="-0.007497"></trkpt>
<trkpt lat="42.714931" lon="-0.007430"><ele>1427</ele></trkpt>
<trkpt lat="42.715104" lon="-0.007462"></trkpt>
<trkpt lat="42.715243" lon="-0.007475"><ele>1425.7</ele></trkpt>
<trkpt lat="42.715369" lon="-0.007446"></trkpt>
<trkpt lat="42.716263" lon="-0.007293"><ele>1421.9</ele></trkpt>
<trkpt lat="42.716552" lon="-0.007203"></trkpt>
<trkpt lat="42.716751" lon="-0.007127"><ele>1423.5</ele></trkpt>
<trkpt lat="42.717076" lon="-0.007132"></trkpt>
<trkpt lat="42.717209" lon="-0.007110"><ele>1428.7</ele></trkpt>
<trkpt lat="42.717751" lon="-0.007239"></trkpt>
<trkpt lat="42.717937" lon="-0.007456"><ele>1431.3</ele></trkpt>
<trkpt lat="42.718018" lon="-0.007551"></trkpt>
<trkpt lat="42.718129" lon="-0.007652"><ele>1431.5</ele></trkpt>
<trkpt lat="42.718246" lon="-0.007698"></trkpt>
<trkpt lat="42.718383" lon="-0.007725"><ele>1436.5</ele></trkpt>
<trkpt lat="42.718514" lon="-0.007731"></trkpt>
<trkpt lat="42.718735" lon="-0.007738"><ele>1431.8</ele></trkpt>
<trkpt lat="42.718843" lon="-0.007715"></trkpt>
<trkpt lat="42.718995" lon="-0.007585"><ele>1433.3</ele></trkpt>
<trkpt lat="42.719086" lon="-0.007564"></trkpt>
<trkpt lat="42.719190" lon="-0.007601"><ele>1430.9</ele></trkpt>
<trkpt lat="42.719610" lon="-0.007654"></trkpt>
<trkpt lat="42.719717" lon="-0.007735"><ele>1424.3</ele></trkpt>
<trkpt lat="42.719894" lon="-0.007808"></trkpt>
<trkpt lat="42.719990" lon="-0.007898"><ele>1420.8</ele></trkpt>
<trkpt lat="42.720058" lon="-0.007953"></trkpt>
<trkpt lat="42.720099" lon="-0.008028"><ele>1417.5</ele></trkpt>
<trkpt lat="42.720234" lon="-0.008301"></trkpt>
<trkpt lat="42.720536" lon="-0.008506"><ele>1409.5</ele></trkpt>
<trkpt lat="42.720106" lon="-0.008047"></trkpt>
<trkpt lat="42.720099" lon="-0.008028"><ele>1417.5</ele></trkpt>
</trkseg></trk>
</gpx>