<?xml version="1.0" encoding="UTF-8"?>
<gpx version="1.1" creator="Randox" xmlns="http://www.topografix.com/GPX/1/1">
<metadata><name>Le Puy de Dôme</name><copyright author="OpenStreetMap contributors"><license>https://www.openstreetmap.org/copyright</license></copyright></metadata>
<trk><name>Le Puy de Dôme</name><trkseg>
<trkpt lat="45.785123" lon="2.961583"><ele>1096.8</ele></trkpt>
<trkpt lat="45.785042" lon="2.961776"></trkpt>
<trkpt lat="45.784904" lon="2.961934"><ele>1102.7</ele></trkpt>
<trkpt lat="45.784715" lon="2.962062"></trkpt>
<trkpt lat="45.784584" lon="2.962052"><ele>1104.4</ele></trkpt>
<trkpt lat="45.784465" lon="2.962089"></trkpt>
<trkpt lat="45.784079" lon="2.962459"><ele>1111.5</ele></trkpt>
<trkpt lat="45.783914" lon="2.962838"></trkpt>
<trkpt lat="45.783864" lon="2.962973"><ele>1116.7</ele></trkpt>
<trkpt lat="45.783818" lon="2.963137"></trkpt>
<trkpt lat="45.783790" lon="2.963425"><ele>1120.4</ele></trkpt>
<trkpt lat="45.783736" lon="2.963881"></trkpt>
<trkpt lat="45.783719" lon="2.964183"><ele>1122.9</ele></trkpt>
<trkpt lat="45.783740" lon="2.964390"></trkpt>
<trkpt lat="45.783784" lon="2.964600"><ele>1123</ele></trkpt>
<trkpt lat="45.783813" lon="2.964742"></trkpt>
<trkpt lat="45.783829" lon="2.964850"><ele>1122.9</ele></trkpt>
<trkpt lat="45.783842" lon="2.964962"></trkpt>
<trkpt lat="45.783856" lon="2.965048"><ele>1122.9</ele></trkpt>
<trkpt lat="45.783869" lon="2.965104"></trkpt>
<trkpt lat="45.783880" lon="2.965155"><ele>1122.9</ele></trkpt>
<trkpt lat="45.783885" lon="2.965195"></trkpt>
<trkpt lat="45.783886" lon="2.965252"><ele>1122.8</ele></trkpt>
<trkpt lat="45.783881" lon="2.965333"></trkpt>
<trkpt lat="45.783886" lon="2.965469"><ele>1123.1</ele></trkpt>
<trkpt lat="45.783888" lon="2.965538"></trkpt>
<trkpt lat="45.783892" lon="2.965587"><ele>1123</ele></trkpt>
<trkpt lat="45.783901" lon="2.965632"></trkpt>
<trkpt lat="45.783912" lon="2.965700"><ele>1122.9</ele></trkpt>
<trkpt lat="45.783924" lon="2.965785"></trkpt>
<trkpt lat="45.783941" lon="2.965923"><ele>1123.4</ele></trkpt>
<trkpt lat="45.783859" lon="2.965840"></trkpt>
<trkpt lat="45.783737" lon="2.965769"><ele>1123.1</ele></trkpt>
<trkpt lat="45.783638" lon="2.965714"></trkpt>
<trkpt lat="45.783561" lon="2.965666"><ele>1124.1</ele></trkpt>
<trkpt lat="45.783526" lon="2.965644"></trkpt>
<trkpt lat="45.783494" lon="2.965615"><ele>1124.7</ele></trkpt>
<trkpt lat="45.783456" lon="2.965571"></trkpt>
<trkpt lat="45.783403" lon="2.965518"><ele>1125.7</ele></trkpt>
<trkpt lat="45.783195" lon="2.965486"></trkpt>
<trkpt lat="45.783015" lon="2.965483"><ele>1131.1</ele></trkpt>
<trkpt lat="45.782631" lon="2.965404"></trkpt>
<trkpt lat="45.782233" lon="2.965522"><ele>1140.8</ele></trkpt>
<trkpt lat="45.781997" lon="2.965563"></trkpt>
<trkpt lat="45.781492" lon="2.965270"><ele>1155.3</ele></trkpt>
<trkpt lat="45.781348" lon="2.965145"></trkpt>
<trkpt lat="45.781133" lon="2.965212"><ele>1168.4</ele></trkpt>
<trkpt lat="45.781133" lon="2.965212"></trkpt>
<trkpt lat="45.781009" lon="2.965167"><ele>1172.2</ele></trkpt>
<trkpt lat="45.780964" lon="2.965156"></trkpt>
<trkpt lat="45.780943" lon="2.965145"><ele>1173.2</ele></trkpt>
<trkpt lat="45.780922" lon="2.965128"></trkpt>
<trkpt lat="45.780898" lon="2.965108"><ele>1174.4</ele></trkpt>
<trkpt lat="45.780875" lon="2.965098"></trkpt>
<trkpt lat="45.780854" lon="2.965092"><ele>1175.1</ele></trkpt>
<trkpt lat="45.780834" lon="2.965092"></trkpt>
<trkpt lat="45.780784" lon="2.965090"><ele>1177</ele></trkpt>
<trkpt lat="45.780765" lon="2.965084"></trkpt>
<trkpt lat="45.780747" lon="2.965073"><ele>1177.5</ele></trkpt>
<trkpt lat="45.780732" lon="2.965062"></trkpt>
<trkpt lat="45.780709" lon="2.965048"><ele>1177.8</ele></trkpt>
<trkpt lat="45.780691" lon="2.965044"></trkpt>
<trkpt lat="45.780482" lon="2.965050"><ele>1182.2</ele></trkpt>
<trkpt lat="45.780452" lon="2.965043"></trkpt>
<trkpt lat="45.780428" lon="2.965026"><ele>1183.2</ele></trkpt>
<trkpt lat="45.780408" lon="2.965008"></trkpt>
<trkpt lat="45.780388" lon="2.964987"><ele>1184.1</ele></trkpt>
<trkpt lat="45.780368" lon="2.964961"></trkpt>
<trkpt lat="45.780359" lon="2.964949"><ele>1185.4</ele></trkpt>
<trkpt lat="45.780359" lon="2.964931"></trkpt>
<trkpt lat="45.780360" lon="2.964906"><ele>1185.6</ele></trkpt>
<trkpt lat="45.780366" lon="2.964869"></trkpt>
<trkpt lat="45.780384" lon="2.964733"><ele>1185.6</ele></trkpt>
<trkpt lat="45.780385" lon="2.964679"></trkpt>
<trkpt lat="45.780370" lon="2.964582"><ele>1186.1</ele></trkpt>
<trkpt lat="45.780339" lon="2.964483"></trkpt>
<trkpt lat="45.780284" lon="2.964397"><ele>1188.4</ele></trkpt>
<trkpt lat="45.780215" lon="2.964322"></trkpt>
<trkpt lat="45.780142" lon="2.964259"><ele>1192.7</ele></trkpt>
<trkpt lat="45.780045" lon="2.964186"></trkpt>
<trkpt lat="45.779812" lon="2.964101"><ele>1199.6</ele></trkpt>
<trkpt lat="45.779728" lon="2.964051"></trkpt>
<trkpt lat="45.779649" lon="2.963987"><ele>1202.1</ele></trkpt>
<trkpt lat="45.779560" lon="2.963904"></trkpt>
<trkpt lat="45.779494" lon="2.963842"><ele>1205.6</ele></trkpt>
<trkpt lat="45.779427" lon="2.963799"></trkpt>
<trkpt lat="45.779339" lon="2.963781"><ele>1208.1</ele></trkpt>
<trkpt lat="45.779215" lon="2.963781"></trkpt>
<trkpt lat="45.778974" lon="2.963778"><ele>1211.6</ele></trkpt>
<trkpt lat="45.778831" lon="2.963776"></trkpt>
<trkpt lat="45.778723" lon="2.963769"><ele>1212.2</ele></trkpt>
<trkpt lat="45.778677" lon="2.963771"></trkpt>
<trkpt lat="45.778633" lon="2.963782"><ele>1212.6</ele></trkpt>
<trkpt lat="45.778566" lon="2.963793"></trkpt>
<trkpt lat="45.778513" lon="2.963791"><ele>1213.2</ele></trkpt>
<trkpt lat="45.778482" lon="2.963791"></trkpt>
<trkpt lat="45.778457" lon="2.963796"><ele>1213.3</ele></trkpt>
<trkpt lat="45.778435" lon="2.963804"></trkpt>
<trkpt lat="45.778414" lon="2.963816"><ele>1213.5</ele></trkpt>
<trkpt lat="45.778393" lon="2.963834"></trkpt>
<trkpt lat="45.778369" lon="2.963857"><ele>1213.6</ele></trkpt>
<trkpt lat="45.778298" lon="2.963939"></trkpt>
<trkpt lat="45.778229" lon="2.964027"><ele>1214.2</ele></trkpt>
<trkpt lat="45.778213" lon="2.964051"></trkpt>
<trkpt lat="45.778203" lon="2.964075"><ele>1214.6</ele></trkpt>
<trkpt lat="45.778192" lon="2.964106"></trkpt>
<trkpt lat="45.778186" lon="2.964139"><ele>1215.3</ele></trkpt>
<trkpt lat="45.778182" lon="2.964173"></trkpt>
<trkpt lat="45.778178" lon="2.964197"><ele>1215.5</ele></trkpt>
<trkpt lat="45.778172" lon="2.964218"></trkpt>
<trkpt lat="45.778165" lon="2.964234"><ele>1215.7</ele></trkpt>
<trkpt lat="45.778151" lon="2.964244"></trkpt>
<trkpt lat="45.778131" lon="2.964253"><ele>1216</ele></trkpt>
<trkpt lat="45.778111" lon="2.964257"></trkpt>
<trkpt lat="45.778089" lon="2.964259"><ele>1216.2</ele></trkpt>
<trkpt lat="45.777952" lon="2.964261"></trkpt>
<trkpt lat="45.777893" lon="2.964267"><ele>1218</ele></trkpt>
<trkpt lat="45.777842" lon="2.964274"></trkpt>
<trkpt lat="45.777685" lon="2.964297"><ele>1220.3</ele></trkpt>
<trkpt lat="45.777650" lon="2.964305"></trkpt>
<trkpt lat="45.777610" lon="2.964319"><ele>1221.5</ele></trkpt>
<trkpt lat="45.777527" lon="2.964344"></trkpt>
<trkpt lat="45.777480" lon="2.964351"><ele>1223.9</ele></trkpt>
<trkpt lat="45.777441" lon="2.964362"></trkpt>
<trkpt lat="45.777380" lon="2.964380"><ele>1225.4</ele></trkpt>
<trkpt lat="45.777298" lon="2.964410"></trkpt>
<trkpt lat="45.777172" lon="2.964465"><ele>1229.2</ele></trkpt>
<trkpt lat="45.777140" lon="2.964468"></trkpt>
<trkpt lat="45.777111" lon="2.964475"><ele>1230.7</ele></trkpt>
<trkpt lat="45.777058" lon="2.964496"></trkpt>
<trkpt lat="45.777029" lon="2.964500"><ele>1231.5</ele></trkpt>
<trkpt lat="45.776999" lon="2.964507"></trkpt>
<trkpt lat="45.776953" lon="2.964524"><ele>1233.1</ele></trkpt>
<trkpt lat="45.776915" lon="2.964541"></trkpt>
<trkpt lat="45.776730" lon="2.964613"><ele>1237.1</ele></trkpt>
<trkpt lat="45.776566" lon="2.964683"></trkpt>
<trkpt lat="45.776487" lon="2.964729"><ele>1242.7</ele></trkpt>
<trkpt lat="45.776454" lon="2.964746"></trkpt>
<trkpt lat="45.776431" lon="2.964751"><ele>1243.6</ele></trkpt>
<trkpt lat="45.776407" lon="2.964748"></trkpt>
<trkpt lat="45.776393" lon="2.964739"><ele>1244.7</ele></trkpt>
<trkpt lat="45.776383" lon="2.964722"></trkpt>
<trkpt lat="45.776341" lon="2.964632"><ele>1246.9</ele></trkpt>
<trkpt lat="45.776289" lon="2.964513"></trkpt>
<trkpt lat="45.776201" lon="2.964326"><ele>1253</ele></trkpt>
<trkpt lat="45.776112" lon="2.964451"></trkpt>
<trkpt lat="45.776075" lon="2.964513"><ele>1256.5</ele></trkpt>
<trkpt lat="45.776054" lon="2.964539"></trkpt>
<trkpt lat="45.776016" lon="2.964579"><ele>1257.7</ele></trkpt>
<trkpt lat="45.775962" lon="2.964634"></trkpt>
<trkpt lat="45.775924" lon="2.964677"><ele>1260</ele></trkpt>
<trkpt lat="45.775785" lon="2.964860"></trkpt>
<trkpt lat="45.775730" lon="2.964934"><ele>1267.3</ele></trkpt>
<trkpt lat="45.775676" lon="2.964984"></trkpt>
<trkpt lat="45.775666" lon="2.964958"><ele>1268.5</ele></trkpt>
<trkpt lat="45.775644" lon="2.964892"></trkpt>
<trkpt lat="45.775520" lon="2.964615"><ele>1275.9</ele></trkpt>
<trkpt lat="45.775487" lon="2.964555"></trkpt>
<trkpt lat="45.775421" lon="2.964465"><ele>1279.2</ele></trkpt>
<trkpt lat="45.775396" lon="2.964512"></trkpt>
<trkpt lat="45.775363" lon="2.964599"><ele>1281.2</ele></trkpt>
<trkpt lat="45.775344" lon="2.964635"></trkpt>
<trkpt lat="45.775268" lon="2.964761"><ele>1284.7</ele></trkpt>
<trkpt lat="45.775171" lon="2.964909"></trkpt>
<trkpt lat="45.775139" lon="2.964955"><ele>1289.5</ele></trkpt>
<trkpt lat="45.775099" lon="2.965004"></trkpt>
<trkpt lat="45.775064" lon="2.965047"><ele>1292.3</ele></trkpt>
<trkpt lat="45.775035" lon="2.965104"></trkpt>
<trkpt lat="45.774931" lon="2.965292"><ele>1294.5</ele></trkpt>
<trkpt lat="45.774882" lon="2.965368"></trkpt>
<trkpt lat="45.774819" lon="2.965446"><ele>1299.9</ele></trkpt>
<trkpt lat="45.774718" lon="2.965595"></trkpt>
<trkpt lat="45.774650" lon="2.965702"><ele>1305.8</ele></trkpt>
<trkpt lat="45.774591" lon="2.965844"></trkpt>
<trkpt lat="45.774569" lon="2.965876"><ele>1306.8</ele></trkpt>
<trkpt lat="45.774544" lon="2.965897"></trkpt>
<trkpt lat="45.774293" lon="2.966044"><ele>1316.9</ele></trkpt>
<trkpt lat="45.774149" lon="2.966102"></trkpt>
<trkpt lat="45.773998" lon="2.966152"><ele>1328.3</ele></trkpt>
<trkpt lat="45.773759" lon="2.966355"></trkpt>
<trkpt lat="45.773592" lon="2.966437"><ele>1344.9</ele></trkpt>
<trkpt lat="45.773606" lon="2.966328"></trkpt>
<trkpt lat="45.773590" lon="2.966418"><ele>1345.8</ele></trkpt>
<trkpt lat="45.773599" lon="2.966258"></trkpt>
<trkpt lat="45.773599" lon="2.966258"><ele>1346.4</ele></trkpt>
<trkpt lat="45.773554" lon="2.966284"></trkpt>
<trkpt lat="45.773478" lon="2.966307"><ele>1348.2</ele></trkpt>
<trkpt lat="45.773318" lon="2.966324"></trkpt>
<trkpt lat="45.773184" lon="2.966334"><ele>1352.1</ele></trkpt>
<trkpt lat="45.773108" lon="2.966351"></trkpt>
<trkpt lat="45.773049" lon="2.966381"><ele>1354</ele></trkpt>
<trkpt lat="45.772963" lon="2.966438"></trkpt>
<trkpt lat="45.772858" lon="2.966541"><ele>1357.2</ele></trkpt>
<trkpt lat="45.772681" lon="2.966731"></trkpt>
<trkpt lat="45.772587" lon="2.966813"><ele>1361.4</ele></trkpt>
<trkpt lat="45.772472" lon="2.966867"></trkpt>
<trkpt lat="45.772373" lon="2.966893"><ele>1364.3</ele></trkpt>
<trkpt lat="45.772280" lon="2.966899"></trkpt>
<trkpt lat="45.772087" lon="2.966861"><ele>1368.3</ele></trkpt>
<trkpt lat="45.771884" lon="2.966806"></trkpt>
<trkpt lat="45.771588" lon="2.966676"><ele>1375.3</ele></trkpt>
<trkpt lat="45.771502" lon="2.966588"></trkpt>
<trkpt lat="45.771392" lon="2.966477"><ele>1378.6</ele></trkpt>
<trkpt lat="45.771294" lon="2.966404"></trkpt>
<trkpt lat="45.771139" lon="2.966258"><ele>1382.2</ele></trkpt>
<trkpt lat="45.771047" lon="2.966141"></trkpt>
<trkpt lat="45.770954" lon="2.965990"><ele>1385.9</ele></trkpt>
<trkpt lat="45.770871" lon="2.965823"></trkpt>
<trkpt lat="45.770780" lon="2.965599"><ele>1389.8</ele></trkpt>
<trkpt lat="45.770724" lon="2.965392"></trkpt>
<trkpt lat="45.770686" lon="2.965218"><ele>1393.9</ele></trkpt>
<trkpt lat="45.770663" lon="2.965047"></trkpt>
<trkpt lat="45.770650" lon="2.964753"><ele>1398.3</ele></trkpt>
<trkpt lat="45.770651" lon="2.964533"></trkpt>
<trkpt lat="45.770671" lon="2.964316"><ele>1401.6</ele></trkpt>
<trkpt lat="45.770715" lon="2.964076"></trkpt>
<trkpt lat="45.770769" lon="2.963770"><ele>1411.9</ele></trkpt>
<trkpt lat="45.770825" lon="2.963489"></trkpt>
<trkpt lat="45.770840" lon="2.963411"><ele>1412.6</ele></trkpt>
<trkpt lat="45.770874" lon="2.963235"></trkpt>
<trkpt lat="45.770859" lon="2.963214"><ele>1415.2</ele></trkpt>
<trkpt lat="45.770800" lon="2.963149"></trkpt>
<trkpt lat="45.770748" lon="2.963024"><ele>1415.3</ele></trkpt>
<trkpt lat="45.770738" lon="2.962966"></trkpt>
<trkpt lat="45.770742" lon="2.962818"><ele>1415.4</ele></trkpt>
<trkpt lat="45.770766" lon="2.962623"></trkpt>
<trkpt lat="45.770803" lon="2.962482"><ele>1415</ele></trkpt>
<trkpt lat="45.770820" lon="2.962427"></trkpt>
<trkpt lat="45.770840" lon="2.962261"><ele>1415</ele></trkpt>
<trkpt lat="45.770836" lon="2.962066"></trkpt>
<trkpt lat="45.770616" lon="2.961809"><ele>1407.9</ele></trkpt>
<trkpt lat="45.770701" lon="2.961922"></trkpt>
<trkpt lat="45.770616" lon="2.961809"><ele>1407.9</ele></trkpt>
<trkpt lat="45.770532" lon="2.961681"></trkpt>
<trkpt lat="45.770475" lon="2.961628"><ele>1404.6</ele></trkpt>
<trkpt lat="45.770350" lon="2.961450"></trkpt>
<trkpt lat="45.770230" lon="2.961247"><ele>1397.8</ele></trkpt>
<trkpt lat="45.770166" lon="2.961092"></trkpt>
<trkpt lat="45.770097" lon="2.960887"><ele>1392.1</ele></trkpt>
<trkpt lat="45.770068" lon="2.960839"></trkpt>
<trkpt lat="45.770023" lon="2.960817"><ele>1389.4</ele></trkpt>
<trkpt lat="45.769967" lon="2.960827"></trkpt>
<trkpt lat="45.769899" lon="2.960864"><ele>1385.6</ele></trkpt>
<trkpt lat="45.769861" lon="2.960905"></trkpt>
<trkpt lat="45.769808" lon="2.960966"><ele>1383</ele></trkpt>
<trkpt lat="45.769690" lon="2.961047"></trkpt>
<trkpt lat="45.769597" lon="2.961098"><ele>1377.4</ele></trkpt>
<trkpt lat="45.769458" lon="2.961157"></trkpt>
<trkpt lat="45.769384" lon="2.961198"><ele>1371.9</ele></trkpt>
<trkpt lat="45.769351" lon="2.961200"></trkpt>
<trkpt lat="45.769314" lon="2.961178"><ele>1370.6</ele></trkpt>
<trkpt lat="45.769292" lon="2.961141"></trkpt>
<trkpt lat="45.769269" lon="2.961081"><ele>1369</ele></trkpt>
<trkpt lat="45.769267" lon="2.961013"></trkpt>
<trkpt lat="45.769276" lon="2.960952"><ele>1367.3</ele></trkpt>
<trkpt lat="45.769304" lon="2.960897"></trkpt>
<trkpt lat="45.769348" lon="2.960830"><ele>1365.5</ele></trkpt>
<trkpt lat="45.769457" lon="2.960716"></trkpt>
<trkpt lat="45.769535" lon="2.960617"><ele>1360.4</ele></trkpt>
<trkpt lat="45.769603" lon="2.960535"></trkpt>
<trkpt lat="45.769652" lon="2.960496"><ele>1357</ele></trkpt>
<trkpt lat="45.769694" lon="2.960454"></trkpt>
<trkpt lat="45.769719" lon="2.960409"><ele>1354.6</ele></trkpt>
<trkpt lat="45.769765" lon="2.960238"></trkpt>
<trkpt lat="45.769795" lon="2.960072"><ele>1346.9</ele></trkpt>
<trkpt lat="45.769787" lon="2.960014"></trkpt>
<trkpt lat="45.769767" lon="2.959989"><ele>1344.2</ele></trkpt>
<trkpt lat="45.769738" lon="2.959992"></trkpt>
<trkpt lat="45.769685" lon="2.960046"><ele>1341.1</ele></trkpt>
<trkpt lat="45.769634" lon="2.960119"></trkpt>
<trkpt lat="45.769580" lon="2.960179"><ele>1338</ele></trkpt>
<trkpt lat="45.769498" lon="2.960243"></trkpt>
<trkpt lat="45.769445" lon="2.960274"><ele>1334.5</ele></trkpt>
<trkpt lat="45.769412" lon="2.960280"></trkpt>
<trkpt lat="45.769394" lon="2.960264"><ele>1332.8</ele></trkpt>
<trkpt lat="45.769387" lon="2.960231"></trkpt>
<trkpt lat="45.769396" lon="2.960171"><ele>1329.5</ele></trkpt>
<trkpt lat="45.769423" lon="2.960114"></trkpt>
<trkpt lat="45.769470" lon="2.960054"><ele>1327</ele></trkpt>
<trkpt lat="45.769501" lon="2.960005"></trkpt>
<trkpt lat="45.769521" lon="2.959946"><ele>1325.2</ele></trkpt>
<trkpt lat="45.769526" lon="2.959897"></trkpt>
<trkpt lat="45.769517" lon="2.959868"><ele>1323.6</ele></trkpt>
<trkpt lat="45.769493" lon="2.959856"></trkpt>
<trkpt lat="45.769465" lon="2.959865"><ele>1321.3</ele></trkpt>
<trkpt lat="45.769446" lon="2.959889"></trkpt>
<trkpt lat="45.769403" lon="2.959951"><ele>1320.4</ele></trkpt>
<trkpt lat="45.769351" lon="2.960005"></trkpt>
<trkpt lat="45.769276" lon="2.960060"><ele>1317.3</ele></trkpt>
<trkpt lat="45.769247" lon="2.960066"></trkpt>
<trkpt lat="45.769223" lon="2.960055"><ele>1316.2</ele></trkpt>
<trkpt lat="45.769216" lon="2.960023"></trkpt>
<trkpt lat="45.769220" lon="2.960000"><ele>1314.7</ele></trkpt>
<trkpt lat="45.769233" lon="2.959972"></trkpt>
<trkpt lat="45.769280" lon="2.959918"><ele>1314.1</ele></trkpt>
<trkpt lat="45.769336" lon="2.959822"></trkpt>
<trkpt lat="45.769395" lon="2.959698"><ele>1309.8</ele></trkpt>
<trkpt lat="45.769445" lon="2.959600"></trkpt>
<trkpt lat="45.769500" lon="2.959518"><ele>1306.6</ele></trkpt>
<trkpt lat="45.769539" lon="2.959452"></trkpt>
<trkpt lat="45.769552" lon="2.959413"><ele>1304.9</ele></trkpt>
<trkpt lat="45.769551" lon="2.959382"></trkpt>
<trkpt lat="45.769539" lon="2.959356"><ele>1303.7</ele></trkpt>
<trkpt lat="45.769507" lon="2.959360"></trkpt>
<trkpt lat="45.769410" lon="2.959399"><ele>1300.5</ele></trkpt>
<trkpt lat="45.769282" lon="2.959491"></trkpt>
<trkpt lat="45.769158" lon="2.959579"><ele>1294.4</ele></trkpt>
<trkpt lat="45.769103" lon="2.959617"></trkpt>
<trkpt lat="45.769043" lon="2.959685"><ele>1292.1</ele></trkpt>
<trkpt lat="45.768980" lon="2.959745"></trkpt>
<trkpt lat="45.768852" lon="2.959801"><ele>1287.4</ele></trkpt>
<trkpt lat="45.768781" lon="2.959824"></trkpt>
<trkpt lat="45.768735" lon="2.959836"><ele>1285.3</ele></trkpt>
<trkpt lat="45.768703" lon="2.959836"></trkpt>
<trkpt lat="45.768675" lon="2.959821"><ele>1284.1</ele></trkpt>
<trkpt lat="45.768666" lon="2.959794"></trkpt>
<trkpt lat="45.768669" lon="2.959762"><ele>1283.5</ele></trkpt>
<trkpt lat="45.768692" lon="2.959732"></trkpt>
<trkpt lat="45.768734" lon="2.959690"><ele>1281.7</ele></trkpt>
<trkpt lat="45.768794" lon="2.959661"></trkpt>
<trkpt lat="45.768837" lon="2.959630"><ele>1280.3</ele></trkpt>
<trkpt lat="45.768877" lon="2.959560"></trkpt>
<trkpt lat="45.768931" lon="2.959469"><ele>1276.3</ele></trkpt>
<trkpt lat="45.768942" lon="2.959420"></trkpt>
<trkpt lat="45.768934" lon="2.959378"><ele>1274.6</ele></trkpt>
<trkpt lat="45.768910" lon="2.959354"></trkpt>
<trkpt lat="45.768870" lon="2.959360"><ele>1272.4</ele></trkpt>
<trkpt lat="45.768748" lon="2.959401"></trkpt>
<trkpt lat="45.768660" lon="2.959414"><ele>1268.9</ele></trkpt>
<trkpt lat="45.768602" lon="2.959430"></trkpt>
<trkpt lat="45.768496" lon="2.959518"><ele>1265</ele></trkpt>
<trkpt lat="45.768312" lon="2.959707"></trkpt>
<trkpt lat="45.768088" lon="2.959934"><ele>1255.1</ele></trkpt>
<trkpt lat="45.767952" lon="2.960143"></trkpt>
<trkpt lat="45.767895" lon="2.960229"><ele>1250.4</ele></trkpt>
<trkpt lat="45.767873" lon="2.960308"></trkpt>
<trkpt lat="45.767855" lon="2.960378"><ele>1248.4</ele></trkpt>
<trkpt lat="45.767821" lon="2.960445"></trkpt>
<trkpt lat="45.767759" lon="2.960564"><ele>1245.7</ele></trkpt>
<trkpt lat="45.767723" lon="2.960588"></trkpt>
<trkpt lat="45.767693" lon="2.960595"><ele>1242.9</ele></trkpt>
<trkpt lat="45.767673" lon="2.960579"></trkpt>
<trkpt lat="45.767649" lon="2.960535"><ele>1241.7</ele></trkpt>
<trkpt lat="45.767660" lon="2.960460"></trkpt>
<trkpt lat="45.767681" lon="2.960267"><ele>1237.6</ele></trkpt>
<trkpt lat="45.767745" lon="2.960004"></trkpt>
<trkpt lat="45.767863" lon="2.959651"><ele>1229.4</ele></trkpt>
<trkpt lat="45.767904" lon="2.959547"></trkpt>
<trkpt lat="45.767906" lon="2.959480"><ele>1226.8</ele></trkpt>
<trkpt lat="45.767897" lon="2.959456"></trkpt>
<trkpt lat="45.767871" lon="2.959452"><ele>1226.2</ele></trkpt>
<trkpt lat="45.767838" lon="2.959468"></trkpt>
<trkpt lat="45.767798" lon="2.959529"><ele>1224.7</ele></trkpt>
<trkpt lat="45.767763" lon="2.959586"></trkpt>
<trkpt lat="45.767711" lon="2.959648"><ele>1222.3</ele></trkpt>
<trkpt lat="45.767638" lon="2.959798"></trkpt>
<trkpt lat="45.767511" lon="2.960082"><ele>1218.1</ele></trkpt>
<trkpt lat="45.767329" lon="2.960348"></trkpt>
<trkpt lat="45.767296" lon="2.960384"><ele>1211.8</ele></trkpt>
<trkpt lat="45.767256" lon="2.960398"></trkpt>
<trkpt lat="45.767241" lon="2.960382"><ele>1210.4</ele></trkpt>
<trkpt lat="45.767228" lon="2.960348"></trkpt>
<trkpt lat="45.767224" lon="2.960304"><ele>1208.7</ele></trkpt>
<trkpt lat="45.767241" lon="2.960153"></trkpt>
<trkpt lat="45.767274" lon="2.960030"><ele>1203.7</ele></trkpt>
<trkpt lat="45.767303" lon="2.959950"></trkpt>
<trkpt lat="45.767335" lon="2.959855"><ele>1201.5</ele></trkpt>
<trkpt lat="45.767357" lon="2.959729"></trkpt>
<trkpt lat="45.767350" lon="2.959528"><ele>1195.7</ele></trkpt>
<trkpt lat="45.767346" lon="2.959374"></trkpt>
<trkpt lat="45.767365" lon="2.959265"><ele>1190.4</ele></trkpt>
<trkpt lat="45.767398" lon="2.959132"></trkpt>
<trkpt lat="45.767464" lon="2.958926"><ele>1185.5</ele></trkpt>
<trkpt lat="45.767541" lon="2.958763"></trkpt>
<trkpt lat="45.767589" lon="2.958632"><ele>1181.3</ele></trkpt>
<trkpt lat="45.767633" lon="2.958411"></trkpt>
<trkpt lat="45.767709" lon="2.958160"><ele>1174.9</ele></trkpt>
<trkpt lat="45.767751" lon="2.958053"></trkpt>
<trkpt lat="45.767755" lon="2.957975"><ele>1170.3</ele></trkpt>
<trkpt lat="45.767740" lon="2.957907"></trkpt>
<trkpt lat="45.767691" lon="2.957895"><ele>1168.2</ele></trkpt>
<trkpt lat="45.767651" lon="2.957922"></trkpt>
<trkpt lat="45.767514" lon="2.958048"><ele>1164.1</ele></trkpt>
<trkpt lat="45.767448" lon="2.958095"></trkpt>
<trkpt lat="45.767348" lon="2.958103"><ele>1160</ele></trkpt>
<trkpt lat="45.767238" lon="2.958071"></trkpt>
<trkpt lat="45.767193" lon="2.958006"><ele>1158.2</ele></trkpt>
<trkpt lat="45.767169" lon="2.957970"></trkpt>
<trkpt lat="45.767149" lon="2.957921"><ele>1157.5</ele></trkpt>
<trkpt lat="45.767121" lon="2.957736"></trkpt>
<trkpt lat="45.767089" lon="2.957637"><ele>1151.7</ele></trkpt>
<trkpt lat="45.767033" lon="2.957519"></trkpt>
<trkpt lat="45.766962" lon="2.957452"><ele>1148.4</ele></trkpt>
<trkpt lat="45.766887" lon="2.957412"></trkpt>
<trkpt lat="45.766765" lon="2.957398"><ele>1144.5</ele></trkpt>
<trkpt lat="45.766590" lon="2.957422"></trkpt>
<trkpt lat="45.766496" lon="2.957425"><ele>1140.8</ele></trkpt>
<trkpt lat="45.766440" lon="2.957573"></trkpt>
<trkpt lat="45.766445" lon="2.957699"><ele>1138.4</ele></trkpt>
<trkpt lat="45.766464" lon="2.957849"></trkpt>
<trkpt lat="45.766438" lon="2.958007"><ele>1135.6</ele></trkpt>
<trkpt lat="45.766387" lon="2.958090"></trkpt>
<trkpt lat="45.766348" lon="2.958232"><ele>1133</ele></trkpt>
<trkpt lat="45.766309" lon="2.958377"></trkpt>
<trkpt lat="45.766266" lon="2.958468"><ele>1130.2</ele></trkpt>
<trkpt lat="45.766223" lon="2.958517"></trkpt>
<trkpt lat="45.766160" lon="2.958494"><ele>1127.9</ele></trkpt>
<trkpt lat="45.766129" lon="2.958311"></trkpt>
<trkpt lat="45.766085" lon="2.958229"><ele>1125.5</ele></trkpt>
<trkpt lat="45.766031" lon="2.958144"></trkpt>
<trkpt lat="45.765967" lon="2.958054"><ele>1122.8</ele></trkpt>
<trkpt lat="45.765892" lon="2.958005"></trkpt>
<trkpt lat="45.765782" lon="2.957949"><ele>1120.1</ele></trkpt>
<trkpt lat="45.765623" lon="2.957845"></trkpt>
<trkpt lat="45.765457" lon="2.957820"><ele>1115.8</ele></trkpt>
<trkpt lat="45.765308" lon="2.957798"></trkpt>
<trkpt lat="45.765200" lon="2.957750"><ele>1112.3</ele></trkpt>
<trkpt lat="45.765154" lon="2.957637"></trkpt>
<trkpt lat="45.765098" lon="2.957540"><ele>1110</ele></trkpt>
<trkpt lat="45.765027" lon="2.957412"></trkpt>
<trkpt lat="45.764976" lon="2.957227"><ele>1104.8</ele></trkpt>
<trkpt lat="45.764952" lon="2.956958"></trkpt>
<trkpt lat="45.764952" lon="2.956583"><ele>1096.7</ele></trkpt>
<trkpt lat="45.764941" lon="2.956225"></trkpt>
<trkpt lat="45.764937" lon="2.956136"><ele>1092.3</ele></trkpt>
<trkpt lat="45.764925" lon="2.956082"></trkpt>
<trkpt lat="45.764889" lon="2.955999"><ele>1091.1</ele></trkpt>
<trkpt lat="45.764844" lon="2.955916"></trkpt>
<trkpt lat="45.764816" lon="2.955881"><ele>1089.7</ele></trkpt>
<trkpt lat="45.764747" lon="2.955810"></trkpt>
<trkpt lat="45.764635" lon="2.955738"><ele>1086.5</ele></trkpt>
<trkpt lat="45.764565" lon="2.955642"></trkpt>
<trkpt lat="45.764364" lon="2.955409"><ele>1081.6</ele></trkpt>
<trkpt lat="45.764364" lon="2.955409"></trkpt>
<trkpt lat="45.764417" lon="2.955350"><ele>1081.1</ele></trkpt>
<trkpt lat="45.764515" lon="2.955309"></trkpt>
<trkpt lat="45.764760" lon="2.955353"><ele>1080</ele></trkpt>
<trkpt lat="45.765069" lon="2.955221"></trkpt>
<trkpt lat="45.765540" lon="2.955075"><ele>1081.3</ele></trkpt>
<trkpt lat="45.765714" lon="2.954919"></trkpt>
<trkpt lat="45.765977" lon="2.954744"><ele>1080.8</ele></trkpt>
<trkpt lat="45.766277" lon="2.954737"></trkpt>
<trkpt lat="45.766597" lon="2.954579"><ele>1089.2</ele></trkpt>
<trkpt lat="45.766780" lon="2.954336"></trkpt>
<trkpt lat="45.767352" lon="2.954040"><ele>1076.7</ele></trkpt>
<trkpt lat="45.767765" lon="2.954062"></trkpt>
<trkpt lat="45.767869" lon="2.954113"><ele>1078.5</ele></trkpt>
<trkpt lat="45.768068" lon="2.954024"></trkpt>
<trkpt lat="45.768635" lon="2.953744"><ele>1081.7</ele></trkpt>
<trkpt lat="45.768878" lon="2.953667"></trkpt>
<trkpt lat="45.769140" lon="2.953495"><ele>1082.1</ele></trkpt>
<trkpt lat="45.769812" lon="2.953277"></trkpt>
<trkpt lat="45.770696" lon="2.952906"><ele>1089.2</ele></trkpt>
<trkpt lat="45.770862" lon="2.952744"></trkpt>
<trkpt lat="45.771428" lon="2.952302"><ele>1079.4</ele></trkpt>
<trkpt lat="45.771791" lon="2.952342"></trkpt>
<trkpt lat="45.772476" lon="2.952168"><ele>1074.4</ele></trkpt>
<trkpt lat="45.773732" lon="2.951951"></trkpt>
<trkpt lat="45.774070" lon="2.951981"><ele>1066.2</ele></trkpt>
<trkpt lat="45.775028" lon="2.952090"></trkpt>
<trkpt lat="45.775301" lon="2.952255"><ele>1056.1</ele></trkpt>
<trkpt lat="45.775470" lon="2.952688"></trkpt>
<trkpt lat="45.775816" lon="2.952955"><ele>1061.1</ele></trkpt>
<trkpt lat="45.776409" lon="2.952748"></trkpt>
<trkpt lat="45.777057" lon="2.952423"><ele>1073.6</ele></trkpt>
<trkpt lat="45.777369" lon="2.952516"></trkpt>
<trkpt lat="45.777618" lon="2.952578"><ele>1072.9</ele></trkpt>
<trkpt lat="45.777855" lon="2.952705"></trkpt>
<trkpt lat="45.778217" lon="2.952724"><ele>1069</ele></trkpt>
<trkpt lat="45.778639" lon="2.952799"></trkpt>
<trkpt lat="45.779329" lon="2.953301"><ele>1062.3</ele></trkpt>
<trkpt lat="45.779493" lon="2.953393"></trkpt>
<trkpt lat="45.780127" lon="2.953664"><ele>1068.7</ele></trkpt>
<trkpt lat="45.780318" lon="2.953989"></trkpt>
<trkpt lat="45.780761" lon="2.955261"><ele>1076.8</ele></trkpt>
<trkpt lat="45.781030" lon="2.955798"></trkpt>
<trkpt lat="45.781192" lon="2.956162"><ele>1075.3</ele></trkpt>
<trkpt lat="45.781294" lon="2.956448"></trkpt>
<trkpt lat="45.781436" lon="2.956934"><ele>1072.2</ele></trkpt>
<trkpt lat="45.781513" lon="2.957146"></trkpt>
<trkpt lat="45.781570" lon="2.957266"><ele>1071.6</ele></trkpt>
<trkpt lat="45.781668" lon="2.957433"></trkpt>
<trkpt lat="45.781728" lon="2.957531"><ele>1071.6</ele></trkpt>
<trkpt lat="45.781773" lon="2.957594"></trkpt>
<trkpt lat="45.781818" lon="2.957668"><ele>1071.6</ele></trkpt>
<trkpt lat="45.781858" lon="2.957749"></trkpt>
<trkpt lat="45.781889" lon="2.957817"><ele>1071.6</ele></trkpt>
<trkpt lat="45.781926" lon="2.957886"></trkpt>
<trkpt lat="45.781981" lon="2.957978"><ele>1071.7</ele></trkpt>
<trkpt lat="45.782046" lon="2.958056"></trkpt>
<trkpt lat="45.782099" lon="2.958162"><ele>1072</ele></trkpt>
<trkpt lat="45.782153" lon="2.958276"></trkpt>
<trkpt lat="45.782188" lon="2.958369"><ele>1072.3</ele></trkpt>
<trkpt lat="45.782213" lon="2.958475"></trkpt>
<trkpt lat="45.782243" lon="2.958588"><ele>1072.9</ele></trkpt>
<trkpt lat="45.782281" lon="2.958726"></trkpt>
<trkpt lat="45.782567" lon="2.959592"><ele>1075</ele></trkpt>
<trkpt lat="45.782706" lon="2.960052"></trkpt>
<trkpt lat="45.782815" lon="2.960443"><ele>1077.5</ele></trkpt>
<trkpt lat="45.782843" lon="2.960547"></trkpt>
<trkpt lat="45.782894" lon="2.960613"><ele>1078.2</ele></trkpt>
<trkpt lat="45.782932" lon="2.960655"></trkpt>
<trkpt lat="45.782963" lon="2.960727"><ele>1078.8</ele></trkpt>
<trkpt lat="45.782977" lon="2.960810"></trkpt>
<trkpt lat="45.783009" lon="2.960864"><ele>1079.5</ele></trkpt>
<trkpt lat="45.783152" lon="2.961006"></trkpt>
<trkpt lat="45.783333" lon="2.961138"><ele>1081.1</ele></trkpt>
<trkpt lat="45.783479" lon="2.961202"></trkpt>
<trkpt lat="45.783577" lon="2.961228"><ele>1082.7</ele></trkpt>
<trkpt lat="45.783661" lon="2.961222"></trkpt>
<trkpt lat="45.783851" lon="2.961166"><ele>1084.9</ele></trkpt>
<trkpt lat="45.784065" lon="2.961098"></trkpt>
<trkpt lat="45.784239" lon="2.961013"><ele>1087.6</ele></trkpt>
<trkpt lat="45.784399" lon="2.960976"></trkpt>
<trkpt lat="45.784455" lon="2.960970"><ele>1089.2</ele></trkpt>
<trkpt lat="45.784542" lon="2.960970"></trkpt>
<trkpt lat="45.784622" lon="2.960997"><ele>1090.8</ele></trkpt>
<trkpt lat="45.784735" lon="2.961071"></trkpt>
<trkpt lat="45.784818" lon="2.961131"><ele>1092.4</ele></trkpt>
<trkpt lat="45.784895" lon="2.961224"></trkpt>
<trkpt lat="45.785009" lon="2.961376"><ele>1096</ele></trkpt>
<trkpt lat="45.785054" lon="2.961438"></trkpt>
<trkpt lat="45.785085" lon="2.961496"><ele>1096.4</ele></trkpt>
<trkpt lat="45.785123" lon="2.961583"><ele>1096.8</ele></trkpt>
</trkseg></trk>
</gpx>