<?xml version="1.0" encoding="UTF-8"?>
<gpx version="1.1" creator="Randox" xmlns="http://www.topografix.com/GPX/1/1">
<metadata><name>Col de Bavella — Trou de la Bombe</name><copyright author="OpenStreetMap contributors"><license>https://www.openstreetmap.org/copyright</license></copyright></metadata>
<trk><name>Col de Bavella — Trou de la Bombe</name><trkseg>
<trkpt lat="41.793505" lon="9.227964"><ele>1217.3</ele></trkpt>
<trkpt lat="41.793173" lon="9.228069"><ele>1220.9</ele></trkpt>
<trkpt lat="41.793065" lon="9.228101"><ele>1222.7</ele></trkpt>
<trkpt lat="41.792939" lon="9.228176"><ele>1223.6</ele></trkpt>
<trkpt lat="41.792782" lon="9.228246"><ele>1227.3</ele></trkpt>
<trkpt lat="41.792561" lon="9.228289"><ele>1232.8</ele></trkpt>
<trkpt lat="41.792423" lon="9.228438"><ele>1235.3</ele></trkpt>
<trkpt lat="41.792164" lon="9.228721"><ele>1240.4</ele></trkpt>
<trkpt lat="41.791871" lon="9.228873"><ele>1243.1</ele></trkpt>
<trkpt lat="41.791214" lon="9.229069"><ele>1249.6</ele></trkpt>
<trkpt lat="41.790891" lon="9.229261"><ele>1254.5</ele></trkpt>
<trkpt lat="41.790703" lon="9.229273"><ele>1253.4</ele></trkpt>
<trkpt lat="41.790195" lon="9.228849"><ele>1253.3</ele></trkpt>
<trkpt lat="41.789941" lon="9.228762"><ele>1249.7</ele></trkpt>
<trkpt lat="41.789693" lon="9.228853"><ele>1245.1</ele></trkpt>
<trkpt lat="41.789093" lon="9.228771"><ele>1246.3</ele></trkpt>
<trkpt lat="41.788740" lon="9.228798"><ele>1243.9</ele></trkpt>
<trkpt lat="41.788537" lon="9.228841"><ele>1241.1</ele></trkpt>
<trkpt lat="41.788377" lon="9.228791"><ele>1239.9</ele></trkpt>
<trkpt lat="41.788269" lon="9.228681"><ele>1239.5</ele></trkpt>
<trkpt lat="41.788235" lon="9.228609"><ele>1238.8</ele></trkpt>
<trkpt lat="41.788144" lon="9.228550"><ele>1238.4</ele></trkpt>
<trkpt lat="41.787994" lon="9.228420"><ele>1239</ele></trkpt>
<trkpt lat="41.787862" lon="9.228298"><ele>1239.7</ele></trkpt>
<trkpt lat="41.787739" lon="9.228175"><ele>1240.2</ele></trkpt>
<trkpt lat="41.787655" lon="9.228039"><ele>1242.6</ele></trkpt>
<trkpt lat="41.787516" lon="9.227822"><ele>1242.8</ele></trkpt>
<trkpt lat="41.787380" lon="9.227778"><ele>1240.4</ele></trkpt>
<trkpt lat="41.787342" lon="9.227775"><ele>1240.6</ele></trkpt>
<trkpt lat="41.787312" lon="9.227777"><ele>1241.8</ele></trkpt>
<trkpt lat="41.787143" lon="9.227977"><ele>1244.2</ele></trkpt>
<trkpt lat="41.786941" lon="9.228115"><ele>1250.7</ele></trkpt>
<trkpt lat="41.786751" lon="9.228258"><ele>1257</ele></trkpt>
<trkpt lat="41.786333" lon="9.228433"><ele>1265.6</ele></trkpt>
<trkpt lat="41.786018" lon="9.228395"><ele>1273.5</ele></trkpt>
<trkpt lat="41.785745" lon="9.228469"><ele>1280.1</ele></trkpt>
<trkpt lat="41.785620" lon="9.228453"><ele>1283.5</ele></trkpt>
<trkpt lat="41.785578" lon="9.228441"><ele>1284.4</ele></trkpt>
<trkpt lat="41.785481" lon="9.228392"><ele>1285.4</ele></trkpt>
<trkpt lat="41.785389" lon="9.228367"><ele>1286</ele></trkpt>
<trkpt lat="41.785328" lon="9.228365"><ele>1286.1</ele></trkpt>
<trkpt lat="41.785123" lon="9.228365"><ele>1285.7</ele></trkpt>
<trkpt lat="41.784753" lon="9.228345"><ele>1285.8</ele></trkpt>
<trkpt lat="41.784606" lon="9.228336"><ele>1287.7</ele></trkpt>
<trkpt lat="41.784489" lon="9.228325"><ele>1288.6</ele></trkpt>
<trkpt lat="41.784385" lon="9.228277"><ele>1290.4</ele></trkpt>
<trkpt lat="41.784298" lon="9.228181"><ele>1291.8</ele></trkpt>
<trkpt lat="41.784210" lon="9.228030"><ele>1292.4</ele></trkpt>
<trkpt lat="41.783881" lon="9.227899"><ele>1298.8</ele></trkpt>
<trkpt lat="41.783604" lon="9.227801"><ele>1303.4</ele></trkpt>
<trkpt lat="41.783383" lon="9.227728"><ele>1306.4</ele></trkpt>
<trkpt lat="41.783189" lon="9.227692"><ele>1309.1</ele></trkpt>
<trkpt lat="41.783070" lon="9.227697"><ele>1310</ele></trkpt>
<trkpt lat="41.782969" lon="9.227735"><ele>1311.2</ele></trkpt>
<trkpt lat="41.782827" lon="9.227880"><ele>1311.5</ele></trkpt>
<trkpt lat="41.782569" lon="9.228046"><ele>1312.6</ele></trkpt>
<trkpt lat="41.782424" lon="9.228236"><ele>1313.4</ele></trkpt>
<trkpt lat="41.782140" lon="9.228504"><ele>1313.3</ele></trkpt>
<trkpt lat="41.781855" lon="9.228620"><ele>1313.1</ele></trkpt>
<trkpt lat="41.781701" lon="9.228794"><ele>1313.5</ele></trkpt>
<trkpt lat="41.781527" lon="9.228898"><ele>1313.6</ele></trkpt>
<trkpt lat="41.781094" lon="9.228980"><ele>1311.4</ele></trkpt>
<trkpt lat="41.780554" lon="9.229083"><ele>1303.2</ele></trkpt>
<trkpt lat="41.780391" lon="9.229147"><ele>1300.4</ele></trkpt>
<trkpt lat="41.780296" lon="9.229178"><ele>1298.9</ele></trkpt>
<trkpt lat="41.780238" lon="9.229167"><ele>1298.2</ele></trkpt>
<trkpt lat="41.780194" lon="9.229166"><ele>1297.6</ele></trkpt>
<trkpt lat="41.780166" lon="9.229202"><ele>1296.8</ele></trkpt>
<trkpt lat="41.780136" lon="9.229295"><ele>1296.1</ele></trkpt>
<trkpt lat="41.780066" lon="9.229363"><ele>1295.4</ele></trkpt>
<trkpt lat="41.779938" lon="9.229468"><ele>1293.7</ele></trkpt>
<trkpt lat="41.779792" lon="9.229555"><ele>1294.2</ele></trkpt>
<trkpt lat="41.779679" lon="9.229634"><ele>1294.9</ele></trkpt>
<trkpt lat="41.779588" lon="9.229684"><ele>1295.8</ele></trkpt>
<trkpt lat="41.779470" lon="9.229730"><ele>1295.1</ele></trkpt>
<trkpt lat="41.779299" lon="9.229846"><ele>1290</ele></trkpt>
<trkpt lat="41.779203" lon="9.229936"><ele>1285.6</ele></trkpt>
<trkpt lat="41.779148" lon="9.230062"><ele>1283.3</ele></trkpt>
<trkpt lat="41.779058" lon="9.230237"><ele>1281</ele></trkpt>
<trkpt lat="41.779005" lon="9.230373"><ele>1280.4</ele></trkpt>
<trkpt lat="41.778876" lon="9.230543"><ele>1278.9</ele></trkpt>
<trkpt lat="41.778737" lon="9.230707"><ele>1276.3</ele></trkpt>
<trkpt lat="41.778640" lon="9.230862"><ele>1274.3</ele></trkpt>
<trkpt lat="41.778494" lon="9.231050"><ele>1270.9</ele></trkpt>
<trkpt lat="41.778397" lon="9.231154"><ele>1268.8</ele></trkpt>
<trkpt lat="41.778276" lon="9.231242"><ele>1265.8</ele></trkpt>
<trkpt lat="41.778161" lon="9.231282"><ele>1263.8</ele></trkpt>
<trkpt lat="41.778001" lon="9.231356"><ele>1263</ele></trkpt>
<trkpt lat="41.778009" lon="9.231446"><ele>1262.6</ele></trkpt>
<trkpt lat="41.778009" lon="9.231583"><ele>1263.4</ele></trkpt>
<trkpt lat="41.777979" lon="9.231802"><ele>1264.8</ele></trkpt>
<trkpt lat="41.778007" lon="9.231910"><ele>1264.9</ele></trkpt>
<trkpt lat="41.778035" lon="9.232024"><ele>1265.6</ele></trkpt>
<trkpt lat="41.778108" lon="9.232111"><ele>1264.5</ele></trkpt>
<trkpt lat="41.778164" lon="9.232253"><ele>1265.4</ele></trkpt>
<trkpt lat="41.778254" lon="9.232391"><ele>1264.8</ele></trkpt>
<trkpt lat="41.778352" lon="9.232497"><ele>1262.4</ele></trkpt>
<trkpt lat="41.778404" lon="9.232599"><ele>1263.6</ele></trkpt>
<trkpt lat="41.778504" lon="9.232719"><ele>1263.3</ele></trkpt>
<trkpt lat="41.778663" lon="9.232869"><ele>1264.3</ele></trkpt>
<trkpt lat="41.778808" lon="9.232951"><ele>1264.6</ele></trkpt>
<trkpt lat="41.778925" lon="9.233098"><ele>1266</ele></trkpt>
<trkpt lat="41.778978" lon="9.233120"><ele>1266.5</ele></trkpt>
<trkpt lat="41.779039" lon="9.233179"><ele>1266.2</ele></trkpt>
<trkpt lat="41.779122" lon="9.233357"><ele>1268.9</ele></trkpt>
<trkpt lat="41.779170" lon="9.233473"><ele>1270.8</ele></trkpt>
<trkpt lat="41.779305" lon="9.233680"><ele>1274.7</ele></trkpt>
<trkpt lat="41.779364" lon="9.233763"><ele>1277</ele></trkpt>
<trkpt lat="41.779472" lon="9.233887"><ele>1278.6</ele></trkpt>
<trkpt lat="41.779514" lon="9.233984"><ele>1281.4</ele></trkpt>
<trkpt lat="41.779531" lon="9.234084"><ele>1284.3</ele></trkpt>
<trkpt lat="41.779570" lon="9.234223"><ele>1283.9</ele></trkpt>
<trkpt lat="41.779549" lon="9.234326"><ele>1281</ele></trkpt>
<trkpt lat="41.779502" lon="9.234535"><ele>1280.7</ele></trkpt>
<trkpt lat="41.779533" lon="9.234753"><ele>1274.2</ele></trkpt>
<trkpt lat="41.779449" lon="9.234943"><ele>1276</ele></trkpt>
<trkpt lat="41.779330" lon="9.235061"><ele>1280.3</ele></trkpt>
<trkpt lat="41.779309" lon="9.235087"><ele>1280.3</ele></trkpt>
<trkpt lat="41.779297" lon="9.235246"><ele>1281.6</ele></trkpt>
<trkpt lat="41.779320" lon="9.235459"><ele>1290.4</ele></trkpt>
<trkpt lat="41.779297" lon="9.235246"><ele>1281.6</ele></trkpt>
<trkpt lat="41.779309" lon="9.235087"><ele>1280.3</ele></trkpt>
<trkpt lat="41.779330" lon="9.235061"><ele>1280.3</ele></trkpt>
<trkpt lat="41.779449" lon="9.234943"><ele>1276</ele></trkpt>
<trkpt lat="41.779533" lon="9.234753"><ele>1274.2</ele></trkpt>
<trkpt lat="41.779502" lon="9.234535"><ele>1280.7</ele></trkpt>
<trkpt lat="41.779549" lon="9.234326"><ele>1281</ele></trkpt>
<trkpt lat="41.779570" lon="9.234223"><ele>1283.9</ele></trkpt>
<trkpt lat="41.779531" lon="9.234084"><ele>1284.3</ele></trkpt>
<trkpt lat="41.779514" lon="9.233984"><ele>1281.4</ele></trkpt>
<trkpt lat="41.779472" lon="9.233887"><ele>1278.6</ele></trkpt>
<trkpt lat="41.779364" lon="9.233763"><ele>1277</ele></trkpt>
<trkpt lat="41.779305" lon="9.233680"><ele>1274.7</ele></trkpt>
<trkpt lat="41.779170" lon="9.233473"><ele>1270.8</ele></trkpt>
<trkpt lat="41.779122" lon="9.233357"><ele>1268.9</ele></trkpt>
<trkpt lat="41.779039" lon="9.233179"><ele>1266.2</ele></trkpt>
<trkpt lat="41.778978" lon="9.233120"><ele>1266.5</ele></trkpt>
<trkpt lat="41.778925" lon="9.233098"><ele>1266</ele></trkpt>
<trkpt lat="41.778808" lon="9.232951"><ele>1264.6</ele></trkpt>
<trkpt lat="41.778663" lon="9.232869"><ele>1264.3</ele></trkpt>
<trkpt lat="41.778504" lon="9.232719"><ele>1263.3</ele></trkpt>
<trkpt lat="41.778404" lon="9.232599"><ele>1263.6</ele></trkpt>
<trkpt lat="41.778352" lon="9.232497"><ele>1262.4</ele></trkpt>
<trkpt lat="41.778254" lon="9.232391"><ele>1264.8</ele></trkpt>
<trkpt lat="41.778164" lon="9.232253"><ele>1265.4</ele></trkpt>
<trkpt lat="41.778108" lon="9.232111"><ele>1264.5</ele></trkpt>
<trkpt lat="41.778035" lon="9.232024"><ele>1265.6</ele></trkpt>
<trkpt lat="41.778007" lon="9.231910"><ele>1264.9</ele></trkpt>
<trkpt lat="41.778001" lon="9.231356"><ele>1263</ele></trkpt>
<trkpt lat="41.778009" lon="9.231446"><ele>1262.6</ele></trkpt>
<trkpt lat="41.778009" lon="9.231583"><ele>1263.4</ele></trkpt>
<trkpt lat="41.778001" lon="9.231356"><ele>1263</ele></trkpt>
<trkpt lat="41.778161" lon="9.231282"><ele>1263.8</ele></trkpt>
<trkpt lat="41.778276" lon="9.231242"><ele>1265.8</ele></trkpt>
<trkpt lat="41.778397" lon="9.231154"><ele>1268.8</ele></trkpt>
<trkpt lat="41.778494" lon="9.231050"><ele>1270.9</ele></trkpt>
<trkpt lat="41.778640" lon="9.230862"><ele>1274.3</ele></trkpt>
<trkpt lat="41.778737" lon="9.230707"><ele>1276.3</ele></trkpt>
<trkpt lat="41.778876" lon="9.230543"><ele>1278.9</ele></trkpt>
<trkpt lat="41.779005" lon="9.230373"><ele>1280.4</ele></trkpt>
<trkpt lat="41.779058" lon="9.230237"><ele>1281</ele></trkpt>
<trkpt lat="41.779148" lon="9.230062"><ele>1283.3</ele></trkpt>
<trkpt lat="41.779203" lon="9.229936"><ele>1285.6</ele></trkpt>
<trkpt lat="41.779299" lon="9.229846"><ele>1290</ele></trkpt>
<trkpt lat="41.779470" lon="9.229730"><ele>1295.1</ele></trkpt>
<trkpt lat="41.779588" lon="9.229684"><ele>1295.8</ele></trkpt>
<trkpt lat="41.779679" lon="9.229634"><ele>1294.9</ele></trkpt>
<trkpt lat="41.779792" lon="9.229555"><ele>1294.2</ele></trkpt>
<trkpt lat="41.779938" lon="9.229468"><ele>1293.7</ele></trkpt>
<trkpt lat="41.780066" lon="9.229363"><ele>1295.4</ele></trkpt>
<trkpt lat="41.780136" lon="9.229295"><ele>1296.1</ele></trkpt>
<trkpt lat="41.780166" lon="9.229202"><ele>1296.8</ele></trkpt>
<trkpt lat="41.780194" lon="9.229166"><ele>1297.6</ele></trkpt>
<trkpt lat="41.780238" lon="9.229167"><ele>1298.2</ele></trkpt>
<trkpt lat="41.780296" lon="9.229178"><ele>1298.9</ele></trkpt>
<trkpt lat="41.780391" lon="9.229147"><ele>1300.4</ele></trkpt>
<trkpt lat="41.780554" lon="9.229083"><ele>1303.2</ele></trkpt>
<trkpt lat="41.781094" lon="9.228980"><ele>1311.4</ele></trkpt>
<trkpt lat="41.781527" lon="9.228898"><ele>1313.6</ele></trkpt>
<trkpt lat="41.781701" lon="9.228794"><ele>1313.5</ele></trkpt>
<trkpt lat="41.781855" lon="9.228620"><ele>1313.1</ele></trkpt>
<trkpt lat="41.782140" lon="9.228504"><ele>1313.3</ele></trkpt>
<trkpt lat="41.782424" lon="9.228236"><ele>1313.4</ele></trkpt>
<trkpt lat="41.782569" lon="9.228046"><ele>1312.6</ele></trkpt>
<trkpt lat="41.782827" lon="9.227880"><ele>1311.5</ele></trkpt>
<trkpt lat="41.782969" lon="9.227735"><ele>1311.2</ele></trkpt>
<trkpt lat="41.783070" lon="9.227697"><ele>1310</ele></trkpt>
<trkpt lat="41.783189" lon="9.227692"><ele>1309.1</ele></trkpt>
<trkpt lat="41.783383" lon="9.227728"><ele>1306.4</ele></trkpt>
<trkpt lat="41.783604" lon="9.227801"><ele>1303.4</ele></trkpt>
<trkpt lat="41.783881" lon="9.227899"><ele>1298.8</ele></trkpt>
<trkpt lat="41.784210" lon="9.228030"><ele>1292.4</ele></trkpt>
<trkpt lat="41.784473" lon="9.227787"><ele>1288.1</ele></trkpt>
<trkpt lat="41.784580" lon="9.227444"><ele>1287.4</ele></trkpt>
<trkpt lat="41.784792" lon="9.226848"><ele>1285.5</ele></trkpt>
<trkpt lat="41.784931" lon="9.226274"><ele>1286.5</ele></trkpt>
<trkpt lat="41.785121" lon="9.225805"><ele>1290.7</ele></trkpt>
<trkpt lat="41.785270" lon="9.224789"><ele>1286.3</ele></trkpt>
<trkpt lat="41.785630" lon="9.224580"><ele>1283.7</ele></trkpt>
<trkpt lat="41.785841" lon="9.224366"><ele>1282.4</ele></trkpt>
<trkpt lat="41.785954" lon="9.224325"><ele>1282.1</ele></trkpt>
<trkpt lat="41.786187" lon="9.224332"><ele>1282.7</ele></trkpt>
<trkpt lat="41.786558" lon="9.224533"><ele>1282.8</ele></trkpt>
<trkpt lat="41.787203" lon="9.225128"><ele>1281.3</ele></trkpt>
<trkpt lat="41.787415" lon="9.225293"><ele>1281.4</ele></trkpt>
<trkpt lat="41.787520" lon="9.225361"><ele>1281.4</ele></trkpt>
<trkpt lat="41.787695" lon="9.225391"><ele>1281.9</ele></trkpt>
<trkpt lat="41.787859" lon="9.225415"><ele>1282</ele></trkpt>
<trkpt lat="41.788046" lon="9.225419"><ele>1283.3</ele></trkpt>
<trkpt lat="41.788166" lon="9.225435"><ele>1284.9</ele></trkpt>
<trkpt lat="41.788455" lon="9.225390"><ele>1288.8</ele></trkpt>
<trkpt lat="41.788683" lon="9.225389"><ele>1293.5</ele></trkpt>
<trkpt lat="41.788776" lon="9.225408"><ele>1294.3</ele></trkpt>
<trkpt lat="41.788855" lon="9.225446"><ele>1295.3</ele></trkpt>
<trkpt lat="41.789044" lon="9.225600"><ele>1297.1</ele></trkpt>
<trkpt lat="41.789145" lon="9.225675"><ele>1297.3</ele></trkpt>
<trkpt lat="41.789303" lon="9.225782"><ele>1298.8</ele></trkpt>
<trkpt lat="41.789523" lon="9.225886"><ele>1301.5</ele></trkpt>
<trkpt lat="41.789722" lon="9.226005"><ele>1302.6</ele></trkpt>
<trkpt lat="41.789831" lon="9.226090"><ele>1302.5</ele></trkpt>
<trkpt lat="41.789980" lon="9.226154"><ele>1302.6</ele></trkpt>
<trkpt lat="41.790101" lon="9.226233"><ele>1301.6</ele></trkpt>
<trkpt lat="41.790139" lon="9.226248"><ele>1301.3</ele></trkpt>
<trkpt lat="41.790194" lon="9.226253"><ele>1300.8</ele></trkpt>
<trkpt lat="41.790231" lon="9.226238"><ele>1300.6</ele></trkpt>
<trkpt lat="41.790353" lon="9.226169"><ele>1298.6</ele></trkpt>
<trkpt lat="41.790422" lon="9.226150"><ele>1296.8</ele></trkpt>
<trkpt lat="41.790598" lon="9.226169"><ele>1295.6</ele></trkpt>
<trkpt lat="41.790644" lon="9.226174"><ele>1295.3</ele></trkpt>
<trkpt lat="41.790703" lon="9.226163"><ele>1295</ele></trkpt>
<trkpt lat="41.790850" lon="9.226133"><ele>1292.7</ele></trkpt>
<trkpt lat="41.790998" lon="9.226118"><ele>1291.1</ele></trkpt>
<trkpt lat="41.791107" lon="9.226123"><ele>1289.3</ele></trkpt>
<trkpt lat="41.791272" lon="9.226080"><ele>1287.2</ele></trkpt>
<trkpt lat="41.791324" lon="9.226064"><ele>1286.6</ele></trkpt>
<trkpt lat="41.791420" lon="9.226009"><ele>1285.8</ele></trkpt>
<trkpt lat="41.791473" lon="9.225951"><ele>1285.2</ele></trkpt>
<trkpt lat="41.791521" lon="9.225844"><ele>1282.7</ele></trkpt>
<trkpt lat="41.791585" lon="9.225748"><ele>1280.9</ele></trkpt>
<trkpt lat="41.791671" lon="9.225695"><ele>1279.8</ele></trkpt>
<trkpt lat="41.791776" lon="9.225652"><ele>1279.1</ele></trkpt>
<trkpt lat="41.791842" lon="9.225644"><ele>1278.3</ele></trkpt>
<trkpt lat="41.791885" lon="9.225648"><ele>1277.8</ele></trkpt>
<trkpt lat="41.791941" lon="9.225656"><ele>1277.3</ele></trkpt>
<trkpt lat="41.791970" lon="9.225683"><ele>1276.8</ele></trkpt>
<trkpt lat="41.792008" lon="9.225749"><ele>1275.9</ele></trkpt>
<trkpt lat="41.792034" lon="9.225771"><ele>1275.8</ele></trkpt>
<trkpt lat="41.792085" lon="9.225764"><ele>1274.4</ele></trkpt>
<trkpt lat="41.792148" lon="9.225725"><ele>1273.5</ele></trkpt>
<trkpt lat="41.792206" lon="9.225643"><ele>1272.6</ele></trkpt>
<trkpt lat="41.792311" lon="9.225442"><ele>1271.2</ele></trkpt>
<trkpt lat="41.792393" lon="9.225329"><ele>1272.3</ele></trkpt>
<trkpt lat="41.792428" lon="9.225299"><ele>1272.8</ele></trkpt>
<trkpt lat="41.792471" lon="9.225289"><ele>1272.8</ele></trkpt>
<trkpt lat="41.792673" lon="9.225323"><ele>1272.5</ele></trkpt>
<trkpt lat="41.792737" lon="9.225321"><ele>1272.5</ele></trkpt>
<trkpt lat="41.792779" lon="9.225290"><ele>1272.6</ele></trkpt>
<trkpt lat="41.792866" lon="9.225195"><ele>1271.4</ele></trkpt>
<trkpt lat="41.792906" lon="9.225133"><ele>1270.5</ele></trkpt>
<trkpt lat="41.792940" lon="9.225120"><ele>1269.6</ele></trkpt>
<trkpt lat="41.793006" lon="9.225114"><ele>1269.3</ele></trkpt>
<trkpt lat="41.793132" lon="9.225137"><ele>1268.2</ele></trkpt>
<trkpt lat="41.793177" lon="9.225133"><ele>1267.6</ele></trkpt>
<trkpt lat="41.793203" lon="9.225123"><ele>1266.7</ele></trkpt>
<trkpt lat="41.793383" lon="9.225070"><ele>1265</ele></trkpt>
<trkpt lat="41.793492" lon="9.225068"><ele>1264.1</ele></trkpt>
<trkpt lat="41.793579" lon="9.225038"><ele>1262.9</ele></trkpt>
<trkpt lat="41.793671" lon="9.224982"><ele>1261.1</ele></trkpt>
<trkpt lat="41.793778" lon="9.224932"><ele>1259</ele></trkpt>
<trkpt lat="41.793847" lon="9.224887"><ele>1256.4</ele></trkpt>
<trkpt lat="41.794296" lon="9.224854"><ele>1247.6</ele></trkpt>
<trkpt lat="41.794374" lon="9.224830"><ele>1246.3</ele></trkpt>
<trkpt lat="41.794484" lon="9.224786"><ele>1244.2</ele></trkpt>
<trkpt lat="41.794563" lon="9.224766"><ele>1243.4</ele></trkpt>
<trkpt lat="41.794596" lon="9.224772"><ele>1243</ele></trkpt>
<trkpt lat="41.794644" lon="9.224802"><ele>1242.9</ele></trkpt>
<trkpt lat="41.794720" lon="9.224897"><ele>1242.6</ele></trkpt>
<trkpt lat="41.794789" lon="9.225025"><ele>1241.1</ele></trkpt>
<trkpt lat="41.794862" lon="9.225153"><ele>1239.6</ele></trkpt>
<trkpt lat="41.794924" lon="9.225152"><ele>1237.4</ele></trkpt>
<trkpt lat="41.794974" lon="9.225137"><ele>1236.4</ele></trkpt>
<trkpt lat="41.795036" lon="9.225100"><ele>1235.5</ele></trkpt>
<trkpt lat="41.795077" lon="9.225076"><ele>1234.6</ele></trkpt>
<trkpt lat="41.795120" lon="9.225081"><ele>1233.6</ele></trkpt>
<trkpt lat="41.795172" lon="9.225115"><ele>1231.7</ele></trkpt>
<trkpt lat="41.795239" lon="9.225125"><ele>1230.5</ele></trkpt>
<trkpt lat="41.795290" lon="9.225124"><ele>1229.4</ele></trkpt>
<trkpt lat="41.795451" lon="9.225081"><ele>1224.4</ele></trkpt>
<trkpt lat="41.795563" lon="9.225023"><ele>1221.2</ele></trkpt>
<trkpt lat="41.795583" lon="9.225007"><ele>1221.2</ele></trkpt>
<trkpt lat="41.795631" lon="9.224960"><ele>1220.4</ele></trkpt>
<trkpt lat="41.795680" lon="9.224901"><ele>1219.8</ele></trkpt>
<trkpt lat="41.795680" lon="9.224991"><ele>1219.9</ele></trkpt>
<trkpt lat="41.795718" lon="9.225129"><ele>1219.5</ele></trkpt>
<trkpt lat="41.795714" lon="9.225258"><ele>1219.3</ele></trkpt>
<trkpt lat="41.795685" lon="9.225412"><ele>1219</ele></trkpt>
<trkpt lat="41.795666" lon="9.225521"><ele>1219.6</ele></trkpt>
<trkpt lat="41.795652" lon="9.225809"><ele>1218.8</ele></trkpt>
<trkpt lat="41.795635" lon="9.226060"><ele>1218.9</ele></trkpt>
<trkpt lat="41.795587" lon="9.226204"><ele>1218.1</ele></trkpt>
<trkpt lat="41.795506" lon="9.226399"><ele>1218</ele></trkpt>
<trkpt lat="41.795345" lon="9.226678"><ele>1218.6</ele></trkpt>
<trkpt lat="41.795104" lon="9.226951"><ele>1216.9</ele></trkpt>
<trkpt lat="41.794935" lon="9.227121"><ele>1213.4</ele></trkpt>
<trkpt lat="41.794710" lon="9.227228"><ele>1214.2</ele></trkpt>
<trkpt lat="41.794665" lon="9.227313"><ele>1212.8</ele></trkpt>
<trkpt lat="41.794584" lon="9.227523"><ele>1213.1</ele></trkpt>
<trkpt lat="41.794543" lon="9.227582"><ele>1212.7</ele></trkpt>
<trkpt lat="41.794449" lon="9.227655"><ele>1212.8</ele></trkpt>
<trkpt lat="41.793970" lon="9.227759"><ele>1211.8</ele></trkpt>
<trkpt lat="41.793772" lon="9.227791"><ele>1214.7</ele></trkpt>
<trkpt lat="41.793627" lon="9.227856"><ele>1216.7</ele></trkpt>
<trkpt lat="41.793505" lon="9.227964"><ele>1217.3</ele></trkpt>
</trkseg></trk>
</gpx>